[{"LATITUDE":-41.4532352381,"LOCALITY_NAME":"WEST LAUNCESTON","LONGITUDE":147.1297360203,"POSTCODE":7250,"STATE_CODE":"TAS"},{"LATITUDE":-42.8819929673,"LOCALITY_NAME":"HOBART","LONGITUDE":147.325340416,"POSTCODE":7000,"STATE_CODE":"TAS"},{"LATITUDE":-41.2884754086,"LOCALITY_NAME":"SWAN BAY","LONGITUDE":147.0178257555,"POSTCODE":7252,"STATE_CODE":"TAS"},{"LATITUDE":-41.2217190932,"LOCALITY_NAME":"SPRINGFIELD","LONGITUDE":147.4862493674,"POSTCODE":7260,"STATE_CODE":"TAS"},{"LATITUDE":-41.1546109825,"LOCALITY_NAME":"BEAUTY POINT","LONGITUDE":146.8174832117,"POSTCODE":7270,"STATE_CODE":"TAS"},{"LATITUDE":-41.177989623,"LOCALITY_NAME":"DEVONPORT","LONGITUDE":146.3469756535,"POSTCODE":7310,"STATE_CODE":"TAS"},{"LATITUDE":-42.7127211075,"LOCALITY_NAME":"BLACK HILLS","LONGITUDE":147.0277818623,"POSTCODE":7140,"STATE_CODE":"TAS"},{"LATITUDE":-42.8655164039,"LOCALITY_NAME":"LENAH VALLEY","LONGITUDE":147.2865237297,"POSTCODE":7008,"STATE_CODE":"TAS"},{"LATITUDE":-42.8399382083,"LOCALITY_NAME":"GLENORCHY","LONGITUDE":147.2680265467,"POSTCODE":7010,"STATE_CODE":"TAS"},{"LATITUDE":-40.8447480276,"LOCALITY_NAME":"SMITHTON","LONGITUDE":145.1231201947,"POSTCODE":7330,"STATE_CODE":"TAS"},{"LATITUDE":-41.4608624457,"LOCALITY_NAME":"NORWOOD","LONGITUDE":147.177784967,"POSTCODE":7250,"STATE_CODE":"TAS"},{"LATITUDE":-41.2378468526,"LOCALITY_NAME":"LATROBE","LONGITUDE":146.4200184258,"POSTCODE":7307,"STATE_CODE":"TAS"},{"LATITUDE":-41.4834019869,"LOCALITY_NAME":"YOUNGTOWN","LONGITUDE":147.1713475669,"POSTCODE":7249,"STATE_CODE":"TAS"},{"LATITUDE":-42.8580542304,"LOCALITY_NAME":"ROSE BAY","LONGITUDE":147.3563385906,"POSTCODE":7015,"STATE_CODE":"TAS"},{"LATITUDE":-42.9071203837,"LOCALITY_NAME":"SANDY BAY","LONGITUDE":147.3379580728,"POSTCODE":7005,"STATE_CODE":"TAS"},{"LATITUDE":-42.8277125196,"LOCALITY_NAME":"MONTROSE","LONGITUDE":147.2617036806,"POSTCODE":7010,"STATE_CODE":"TAS"},{"LATITUDE":-42.8826460989,"LOCALITY_NAME":"WEST HOBART","LONGITUDE":147.3113794261,"POSTCODE":7000,"STATE_CODE":"TAS"},{"LATITUDE":-41.0545337609,"LOCALITY_NAME":"PARK GROVE","LONGITUDE":145.8845192336,"POSTCODE":7320,"STATE_CODE":"TAS"},{"LATITUDE":-41.1610540559,"LOCALITY_NAME":"ULVERSTONE","LONGITUDE":146.1775878257,"POSTCODE":7315,"STATE_CODE":"TAS"},{"LATITUDE":-40.9910916017,"LOCALITY_NAME":"WYNYARD","LONGITUDE":145.723601321,"POSTCODE":7325,"STATE_CODE":"TAS"},{"LATITUDE":-42.796799053,"LOCALITY_NAME":"MIDWAY POINT","LONGITUDE":147.530472109,"POSTCODE":7171,"STATE_CODE":"TAS"},{"LATITUDE":-42.8345412488,"LOCALITY_NAME":"DERWENT PARK","LONGITUDE":147.2963689637,"POSTCODE":7009,"STATE_CODE":"TAS"},{"LATITUDE":-42.859515197,"LOCALITY_NAME":"NEW TOWN","LONGITUDE":147.3069464668,"POSTCODE":7008,"STATE_CODE":"TAS"},{"LATITUDE":-41.5242278668,"LOCALITY_NAME":"DELORAINE","LONGITUDE":146.6536391223,"POSTCODE":7304,"STATE_CODE":"TAS"},{"LATITUDE":-42.9190526009,"LOCALITY_NAME":"MOUNT NELSON","LONGITUDE":147.3263658911,"POSTCODE":7007,"STATE_CODE":"TAS"},{"LATITUDE":-42.2958300979,"LOCALITY_NAME":"VICTORIA VALLEY","LONGITUDE":146.7039531193,"POSTCODE":7140,"STATE_CODE":"TAS"},{"LATITUDE":-41.1057175943,"LOCALITY_NAME":"GEORGE TOWN","LONGITUDE":146.8275329031,"POSTCODE":7253,"STATE_CODE":"TAS"},{"LATITUDE":-41.438927519,"LOCALITY_NAME":"LAUNCESTON","LONGITUDE":147.1404561495,"POSTCODE":7250,"STATE_CODE":"TAS"},{"LATITUDE":-41.4695550416,"LOCALITY_NAME":"PROSPECT","LONGITUDE":147.1343245526,"POSTCODE":7250,"STATE_CODE":"TAS"},{"LATITUDE":-42.8973141512,"LOCALITY_NAME":"SOUTH HOBART","LONGITUDE":147.3013999542,"POSTCODE":7004,"STATE_CODE":"TAS"},{"LATITUDE":-42.8585844,"LOCALITY_NAME":"WARRANE","LONGITUDE":147.3813631444,"POSTCODE":7018,"STATE_CODE":"TAS"},{"LATITUDE":-41.0444361627,"LOCALITY_NAME":"SOMERSET","LONGITUDE":145.822556455,"POSTCODE":7322,"STATE_CODE":"TAS"},{"LATITUDE":-41.4545610472,"LOCALITY_NAME":"SOUTH LAUNCESTON","LONGITUDE":147.1475067753,"POSTCODE":7249,"STATE_CODE":"TAS"},{"LATITUDE":-41.0707380081,"LOCALITY_NAME":"ROUND HILL","LONGITUDE":145.9433664885,"POSTCODE":7320,"STATE_CODE":"TAS"},{"LATITUDE":-42.8658185848,"LOCALITY_NAME":"ACTON PARK","LONGITUDE":147.4793976803,"POSTCODE":7170,"STATE_CODE":"TAS"},{"LATITUDE":-42.8349717244,"LOCALITY_NAME":"CAMBRIDGE","LONGITUDE":147.4514364724,"POSTCODE":7170,"STATE_CODE":"TAS"},{"LATITUDE":-42.8715349328,"LOCALITY_NAME":"MOUNT STUART","LONGITUDE":147.3037546115,"POSTCODE":7000,"STATE_CODE":"TAS"},{"LATITUDE":-42.8975934168,"LOCALITY_NAME":"ROKEBY","LONGITUDE":147.4346680367,"POSTCODE":7019,"STATE_CODE":"TAS"},{"LATITUDE":-42.9782614372,"LOCALITY_NAME":"KINGSTON","LONGITUDE":147.3007584514,"POSTCODE":7050,"STATE_CODE":"TAS"},{"LATITUDE":-42.7789800921,"LOCALITY_NAME":"NEW NORFOLK","LONGITUDE":147.057685538,"POSTCODE":7140,"STATE_CODE":"TAS"},{"LATITUDE":-41.2853700681,"LOCALITY_NAME":"GRAVELLY BEACH","LONGITUDE":146.9723347234,"POSTCODE":7276,"STATE_CODE":"TAS"},{"LATITUDE":-42.7807350505,"LOCALITY_NAME":"SORELL","LONGITUDE":147.561749272,"POSTCODE":7172,"STATE_CODE":"TAS"},{"LATITUDE":-42.7608397237,"LOCALITY_NAME":"GRANTON","LONGITUDE":147.2292011186,"POSTCODE":7030,"STATE_CODE":"TAS"},{"LATITUDE":-41.3025573856,"LOCALITY_NAME":"BLACKWALL","LONGITUDE":146.9680178324,"POSTCODE":7275,"STATE_CODE":"TAS"},{"LATITUDE":-41.2253417211,"LOCALITY_NAME":"SPREYTON","LONGITUDE":146.3453378668,"POSTCODE":7310,"STATE_CODE":"TAS"},{"LATITUDE":-41.2020400608,"LOCALITY_NAME":"AMBLESIDE","LONGITUDE":146.3717888037,"POSTCODE":7310,"STATE_CODE":"TAS"},{"LATITUDE":-42.8742606044,"LOCALITY_NAME":"BELLERIVE","LONGITUDE":147.3762531771,"POSTCODE":7018,"STATE_CODE":"TAS"},{"LATITUDE":-42.082445172,"LOCALITY_NAME":"QUEENSTOWN","LONGITUDE":145.5533757573,"POSTCODE":7467,"STATE_CODE":"TAS"},{"LATITUDE":-41.4056261375,"LOCALITY_NAME":"MOWBRAY","LONGITUDE":147.136452593,"POSTCODE":7248,"STATE_CODE":"TAS"},{"LATITUDE":-41.3886019147,"LOCALITY_NAME":"NEWNHAM","LONGITUDE":147.1220757587,"POSTCODE":7248,"STATE_CODE":"TAS"},{"LATITUDE":-41.3124186425,"LOCALITY_NAME":"LANENA","LONGITUDE":146.9722527833,"POSTCODE":7275,"STATE_CODE":"TAS"},{"LATITUDE":-41.2511462782,"LOCALITY_NAME":"BINALONG BAY","LONGITUDE":148.3031473226,"POSTCODE":7216,"STATE_CODE":"TAS"},{"LATITUDE":-41.4336181098,"LOCALITY_NAME":"TREVALLYN","LONGITUDE":147.1136474385,"POSTCODE":7250,"STATE_CODE":"TAS"},{"LATITUDE":-41.415170912,"LOCALITY_NAME":"RIVERSIDE","LONGITUDE":147.0952056347,"POSTCODE":7250,"STATE_CODE":"TAS"},{"LATITUDE":-41.1301136737,"LOCALITY_NAME":"CLARENCE POINT","LONGITUDE":146.8038009059,"POSTCODE":7270,"STATE_CODE":"TAS"},{"LATITUDE":-41.7861097857,"LOCALITY_NAME":"AVOCA","LONGITUDE":147.7214994049,"POSTCODE":7213,"STATE_CODE":"TAS"},{"LATITUDE":-41.0715068128,"LOCALITY_NAME":"SHOREWELL PARK","LONGITUDE":145.8822922359,"POSTCODE":7320,"STATE_CODE":"TAS"},{"LATITUDE":-41.4393500929,"LOCALITY_NAME":"EAST LAUNCESTON","LONGITUDE":147.1503300545,"POSTCODE":7250,"STATE_CODE":"TAS"},{"LATITUDE":-41.3506840637,"LOCALITY_NAME":"NOTLEY HILLS","LONGITUDE":146.9260577593,"POSTCODE":7275,"STATE_CODE":"TAS"},{"LATITUDE":-42.9643776699,"LOCALITY_NAME":"SANDFORD","LONGITUDE":147.4875138485,"POSTCODE":7020,"STATE_CODE":"TAS"},{"LATITUDE":-41.358150766,"LOCALITY_NAME":"LEGANA","LONGITUDE":147.048381297,"POSTCODE":7277,"STATE_CODE":"TAS"},{"LATITUDE":-41.8753118708,"LOCALITY_NAME":"BICHENO","LONGITUDE":148.292249342,"POSTCODE":7215,"STATE_CODE":"TAS"},{"LATITUDE":-41.5717815185,"LOCALITY_NAME":"PERTH","LONGITUDE":147.1715049451,"POSTCODE":7300,"STATE_CODE":"TAS"},{"LATITUDE":-41.1605450278,"LOCALITY_NAME":"SCOTTSDALE","LONGITUDE":147.5155269948,"POSTCODE":7260,"STATE_CODE":"TAS"},{"LATITUDE":-42.7310185177,"LOCALITY_NAME":"DROMEDARY","LONGITUDE":147.1587920393,"POSTCODE":7030,"STATE_CODE":"TAS"},{"LATITUDE":-42.8452425341,"LOCALITY_NAME":"MOONAH","LONGITUDE":147.2948192197,"POSTCODE":7009,"STATE_CODE":"TAS"},{"LATITUDE":-40.9143611122,"LOCALITY_NAME":"IRISHTOWN","LONGITUDE":145.1469233087,"POSTCODE":7330,"STATE_CODE":"TAS"},{"LATITUDE":-41.1201912617,"LOCALITY_NAME":"PENGUIN","LONGITUDE":146.0688396093,"POSTCODE":7316,"STATE_CODE":"TAS"},{"LATITUDE":-41.4535769633,"LOCALITY_NAME":"ST LEONARDS","LONGITUDE":147.1996279064,"POSTCODE":7250,"STATE_CODE":"TAS"},{"LATITUDE":-41.5304314109,"LOCALITY_NAME":"WESTBURY","LONGITUDE":146.8360792455,"POSTCODE":7303,"STATE_CODE":"TAS"},{"LATITUDE":-42.7697027874,"LOCALITY_NAME":"OLD BEACH","LONGITUDE":147.2762887347,"POSTCODE":7017,"STATE_CODE":"TAS"},{"LATITUDE":-41.4689542025,"LOCALITY_NAME":"KINGS MEADOWS","LONGITUDE":147.1574336252,"POSTCODE":7249,"STATE_CODE":"TAS"},{"LATITUDE":-41.4183347625,"LOCALITY_NAME":"RAVENSWOOD","LONGITUDE":147.1744983705,"POSTCODE":7250,"STATE_CODE":"TAS"},{"LATITUDE":-41.1483066602,"LOCALITY_NAME":"WEST ULVERSTONE","LONGITUDE":146.1517281039,"POSTCODE":7315,"STATE_CODE":"TAS"},{"LATITUDE":-42.5610710257,"LOCALITY_NAME":"ORFORD","LONGITUDE":147.8815910897,"POSTCODE":7190,"STATE_CODE":"TAS"},{"LATITUDE":-41.163894822,"LOCALITY_NAME":"TURNERS BEACH","LONGITUDE":146.2339726895,"POSTCODE":7315,"STATE_CODE":"TAS"},{"LATITUDE":-41.096267683,"LOCALITY_NAME":"SULPHUR CREEK","LONGITUDE":146.0243477582,"POSTCODE":7316,"STATE_CODE":"TAS"},{"LATITUDE":-41.0477246371,"LOCALITY_NAME":"PARKLANDS","LONGITUDE":145.8929698944,"POSTCODE":7320,"STATE_CODE":"TAS"},{"LATITUDE":-42.7904768853,"LOCALITY_NAME":"CLAREMONT","LONGITUDE":147.2465526958,"POSTCODE":7011,"STATE_CODE":"TAS"},{"LATITUDE":-43.0895402729,"LOCALITY_NAME":"FRANKLIN","LONGITUDE":146.9974633875,"POSTCODE":7113,"STATE_CODE":"TAS"},{"LATITUDE":-42.7388292305,"LOCALITY_NAME":"BRIDGEWATER","LONGITUDE":147.2427575598,"POSTCODE":7030,"STATE_CODE":"TAS"},{"LATITUDE":-42.7752931416,"LOCALITY_NAME":"AUSTINS FERRY","LONGITUDE":147.2475521281,"POSTCODE":7011,"STATE_CODE":"TAS"},{"LATITUDE":-41.0522312806,"LOCALITY_NAME":"BURNIE","LONGITUDE":145.9036742867,"POSTCODE":7320,"STATE_CODE":"TAS"},{"LATITUDE":-43.0268264133,"LOCALITY_NAME":"SOUTH ARM","LONGITUDE":147.4160581048,"POSTCODE":7022,"STATE_CODE":"TAS"},{"LATITUDE":-42.8591435992,"LOCALITY_NAME":"DODGES FERRY","LONGITUDE":147.6200027422,"POSTCODE":7173,"STATE_CODE":"TAS"},{"LATITUDE":-43.0209910877,"LOCALITY_NAME":"EAGLEHAWK NECK","LONGITUDE":147.9196160199,"POSTCODE":7179,"STATE_CODE":"TAS"},{"LATITUDE":-43.3126718377,"LOCALITY_NAME":"ALONNAH","LONGITUDE":147.2478384014,"POSTCODE":7150,"STATE_CODE":"TAS"},{"LATITUDE":-41.0571003195,"LOCALITY_NAME":"MONTELLO","LONGITUDE":145.8965849897,"POSTCODE":7320,"STATE_CODE":"TAS"},{"LATITUDE":-40.8590248096,"LOCALITY_NAME":"EDGCUMBE BEACH","LONGITUDE":145.4094014763,"POSTCODE":7321,"STATE_CODE":"TAS"},{"LATITUDE":-42.5349894904,"LOCALITY_NAME":"LEVENDALE","LONGITUDE":147.5719627829,"POSTCODE":7120,"STATE_CODE":"TAS"},{"LATITUDE":-41.2748285591,"LOCALITY_NAME":"ACACIA HILLS","LONGITUDE":146.3303990249,"POSTCODE":7306,"STATE_CODE":"TAS"},{"LATITUDE":-41.4219119459,"LOCALITY_NAME":"INVERMAY","LONGITUDE":147.1343017297,"POSTCODE":7248,"STATE_CODE":"TAS"},{"LATITUDE":-43.2297050746,"LOCALITY_NAME":"ABELS BAY","LONGITUDE":147.0989872572,"POSTCODE":7112,"STATE_CODE":"TAS"},{"LATITUDE":-41.1713734748,"LOCALITY_NAME":"LEBRINA","LONGITUDE":147.2245343637,"POSTCODE":7254,"STATE_CODE":"TAS"},{"LATITUDE":-43.0307192823,"LOCALITY_NAME":"MARGATE","LONGITUDE":147.2565199552,"POSTCODE":7054,"STATE_CODE":"TAS"},{"LATITUDE":-41.337285669,"LOCALITY_NAME":"GLENGARRY","LONGITUDE":146.8792364083,"POSTCODE":7275,"STATE_CODE":"TAS"},{"LATITUDE":-40.9027719351,"LOCALITY_NAME":"MENGHA","LONGITUDE":145.2345134033,"POSTCODE":7330,"STATE_CODE":"TAS"},{"LATITUDE":-41.5066419446,"LOCALITY_NAME":"FALMOUTH","LONGITUDE":148.2710319367,"POSTCODE":7215,"STATE_CODE":"TAS"},{"LATITUDE":-41.5375191113,"LOCALITY_NAME":"CARRICK","LONGITUDE":147.0109265699,"POSTCODE":7291,"STATE_CODE":"TAS"},{"LATITUDE":-41.1556550864,"LOCALITY_NAME":"LIETINNA","LONGITUDE":147.4602625486,"POSTCODE":7260,"STATE_CODE":"TAS"},{"LATITUDE":-41.3239649382,"LOCALITY_NAME":"ST HELENS","LONGITUDE":148.2475496642,"POSTCODE":7216,"STATE_CODE":"TAS"},{"LATITUDE":-41.442383118,"LOCALITY_NAME":"SELBOURNE","LONGITUDE":146.8813360749,"POSTCODE":7292,"STATE_CODE":"TAS"},{"LATITUDE":-41.4442629536,"LOCALITY_NAME":"NEWSTEAD","LONGITUDE":147.1608863782,"POSTCODE":7250,"STATE_CODE":"TAS"},{"LATITUDE":-42.6988948662,"LOCALITY_NAME":"BRIGHTON","LONGITUDE":147.2531143749,"POSTCODE":7030,"STATE_CODE":"TAS"},{"LATITUDE":-42.8293995265,"LOCALITY_NAME":"LEWISHAM","LONGITUDE":147.6117757313,"POSTCODE":7173,"STATE_CODE":"TAS"},{"LATITUDE":-41.5996377835,"LOCALITY_NAME":"LONGFORD","LONGITUDE":147.1185147076,"POSTCODE":7301,"STATE_CODE":"TAS"},{"LATITUDE":-41.0044362011,"LOCALITY_NAME":"BRIDPORT","LONGITUDE":147.3914108117,"POSTCODE":7262,"STATE_CODE":"TAS"},{"LATITUDE":-41.2491925154,"LOCALITY_NAME":"LILYDALE","LONGITUDE":147.2211774883,"POSTCODE":7268,"STATE_CODE":"TAS"},{"LATITUDE":-42.8665059187,"LOCALITY_NAME":"ROSNY PARK","LONGITUDE":147.3690291698,"POSTCODE":7018,"STATE_CODE":"TAS"},{"LATITUDE":-41.3860983308,"LOCALITY_NAME":"WILMOT","LONGITUDE":146.1732890351,"POSTCODE":7310,"STATE_CODE":"TAS"},{"LATITUDE":-42.6567153532,"LOCALITY_NAME":"CAMPANIA","LONGITUDE":147.4219249689,"POSTCODE":7026,"STATE_CODE":"TAS"},{"LATITUDE":-43.1641306933,"LOCALITY_NAME":"GEEVESTON","LONGITUDE":146.9186964028,"POSTCODE":7116,"STATE_CODE":"TAS"},{"LATITUDE":-41.3762835766,"LOCALITY_NAME":"ROCHERLEA","LONGITUDE":147.135622395,"POSTCODE":7248,"STATE_CODE":"TAS"},{"LATITUDE":-42.7361406073,"LOCALITY_NAME":"RICHMOND","LONGITUDE":147.4316810261,"POSTCODE":7025,"STATE_CODE":"TAS"},{"LATITUDE":-41.4593190336,"LOCALITY_NAME":"PUNCHBOWL","LONGITUDE":147.1626738176,"POSTCODE":7249,"STATE_CODE":"TAS"},{"LATITUDE":-41.1986618328,"LOCALITY_NAME":"BEACONSFIELD","LONGITUDE":146.8162497254,"POSTCODE":7270,"STATE_CODE":"TAS"},{"LATITUDE":-42.834369796,"LOCALITY_NAME":"LACHLAN","LONGITUDE":147.0381598004,"POSTCODE":7140,"STATE_CODE":"TAS"},{"LATITUDE":-42.0338640141,"LOCALITY_NAME":"ROSS","LONGITUDE":147.490723373,"POSTCODE":7209,"STATE_CODE":"TAS"},{"LATITUDE":-41.1608267415,"LOCALITY_NAME":"LEITH","LONGITUDE":146.2577813211,"POSTCODE":7315,"STATE_CODE":"TAS"},{"LATITUDE":-40.9495596158,"LOCALITY_NAME":"MONTUMANA","LONGITUDE":145.504202352,"POSTCODE":7321,"STATE_CODE":"TAS"},{"LATITUDE":-41.1952259226,"LOCALITY_NAME":"FORTH","LONGITUDE":146.2459563854,"POSTCODE":7310,"STATE_CODE":"TAS"},{"LATITUDE":-41.6663496597,"LOCALITY_NAME":"ROSSARDEN","LONGITUDE":147.742355052,"POSTCODE":7213,"STATE_CODE":"TAS"},{"LATITUDE":-41.2218464971,"LOCALITY_NAME":"MORIARTY","LONGITUDE":146.4804407724,"POSTCODE":7307,"STATE_CODE":"TAS"},{"LATITUDE":-43.1501146153,"LOCALITY_NAME":"NICHOLLS RIVULET","LONGITUDE":147.1423149518,"POSTCODE":7112,"STATE_CODE":"TAS"},{"LATITUDE":-43.0427522309,"LOCALITY_NAME":"PELVERATA","LONGITUDE":147.1192967262,"POSTCODE":7150,"STATE_CODE":"TAS"},{"LATITUDE":-41.585070072,"LOCALITY_NAME":"WHITEMORE","LONGITUDE":146.9206361684,"POSTCODE":7303,"STATE_CODE":"TAS"},{"LATITUDE":-41.4660310908,"LOCALITY_NAME":"SUMMERHILL","LONGITUDE":147.1244745398,"POSTCODE":7250,"STATE_CODE":"TAS"},{"LATITUDE":-41.3849007259,"LOCALITY_NAME":"SHEFFIELD","LONGITUDE":146.3274769461,"POSTCODE":7306,"STATE_CODE":"TAS"},{"LATITUDE":-41.1694806644,"LOCALITY_NAME":"PORT SORELL","LONGITUDE":146.545850839,"POSTCODE":7307,"STATE_CODE":"TAS"},{"LATITUDE":-39.9266584519,"LOCALITY_NAME":"CURRIE","LONGITUDE":143.853936448,"POSTCODE":7256,"STATE_CODE":"TAS"},{"LATITUDE":-41.649844914,"LOCALITY_NAME":"BRACKNELL","LONGITUDE":146.9356819108,"POSTCODE":7302,"STATE_CODE":"TAS"},{"LATITUDE":-40.9996838932,"LOCALITY_NAME":"LULWORTH","LONGITUDE":147.084452725,"POSTCODE":7252,"STATE_CODE":"TAS"},{"LATITUDE":-42.848935717,"LOCALITY_NAME":"LINDISFARNE","LONGITUDE":147.3610443118,"POSTCODE":7015,"STATE_CODE":"TAS"},{"LATITUDE":-43.2319521333,"LOCALITY_NAME":"MIDDLETON","LONGITUDE":147.2473880254,"POSTCODE":7163,"STATE_CODE":"TAS"},{"LATITUDE":-42.9073832968,"LOCALITY_NAME":"LAUDERDALE","LONGITUDE":147.4938503063,"POSTCODE":7021,"STATE_CODE":"TAS"},{"LATITUDE":-42.8837927386,"LOCALITY_NAME":"HOWRAH","LONGITUDE":147.4082806088,"POSTCODE":7018,"STATE_CODE":"TAS"},{"LATITUDE":-42.5048518599,"LOCALITY_NAME":"TRIABUNNA","LONGITUDE":147.9185488096,"POSTCODE":7190,"STATE_CODE":"TAS"},{"LATITUDE":-40.9490913664,"LOCALITY_NAME":"TABLE CAPE","LONGITUDE":145.6985392181,"POSTCODE":7325,"STATE_CODE":"TAS"},{"LATITUDE":-42.8412172668,"LOCALITY_NAME":"LUTANA","LONGITUDE":147.3106547335,"POSTCODE":7009,"STATE_CODE":"TAS"},{"LATITUDE":-42.8736755175,"LOCALITY_NAME":"GLEBE","LONGITUDE":147.3265518081,"POSTCODE":7000,"STATE_CODE":"TAS"},{"LATITUDE":-41.2050300183,"LOCALITY_NAME":"THIRLSTANE","LONGITUDE":146.5342600489,"POSTCODE":7307,"STATE_CODE":"TAS"},{"LATITUDE":-42.2488120913,"LOCALITY_NAME":"BRADYS LAKE","LONGITUDE":146.5017825661,"POSTCODE":7140,"STATE_CODE":"TAS"},{"LATITUDE":-43.1475672883,"LOCALITY_NAME":"PORT ARTHUR","LONGITUDE":147.8481850335,"POSTCODE":7182,"STATE_CODE":"TAS"},{"LATITUDE":-42.9836283479,"LOCALITY_NAME":"KINGSTON BEACH","LONGITUDE":147.3215575768,"POSTCODE":7050,"STATE_CODE":"TAS"},{"LATITUDE":-42.8915370651,"LOCALITY_NAME":"PRIMROSE SANDS","LONGITUDE":147.668464841,"POSTCODE":7173,"STATE_CODE":"TAS"},{"LATITUDE":-42.8606864848,"LOCALITY_NAME":"MORNINGTON","LONGITUDE":147.3936791981,"POSTCODE":7018,"STATE_CODE":"TAS"},{"LATITUDE":-42.8723970836,"LOCALITY_NAME":"NORTH HOBART","LONGITUDE":147.3166535738,"POSTCODE":7000,"STATE_CODE":"TAS"},{"LATITUDE":-41.489690295,"LOCALITY_NAME":"SAVAGE RIVER","LONGITUDE":145.2230931291,"POSTCODE":7321,"STATE_CODE":"TAS"},{"LATITUDE":-41.8878120951,"LOCALITY_NAME":"ZEEHAN","LONGITUDE":145.3386245651,"POSTCODE":7469,"STATE_CODE":"TAS"},{"LATITUDE":-42.372425005,"LOCALITY_NAME":"BOTHWELL","LONGITUDE":147.004327915,"POSTCODE":7030,"STATE_CODE":"TAS"},{"LATITUDE":-41.1823818345,"LOCALITY_NAME":"EAST DEVONPORT","LONGITUDE":146.3767465109,"POSTCODE":7310,"STATE_CODE":"TAS"},{"LATITUDE":-42.1386818483,"LOCALITY_NAME":"TUNBRIDGE","LONGITUDE":147.4216998652,"POSTCODE":7120,"STATE_CODE":"TAS"},{"LATITUDE":-43.1210765445,"LOCALITY_NAME":"WHITE BEACH","LONGITUDE":147.72201664,"POSTCODE":7184,"STATE_CODE":"TAS"},{"LATITUDE":-41.2703288713,"LOCALITY_NAME":"GOSHEN","LONGITUDE":148.1055571093,"POSTCODE":7216,"STATE_CODE":"TAS"},{"LATITUDE":-42.9155755562,"LOCALITY_NAME":"TRANMERE","LONGITUDE":147.417017324,"POSTCODE":7018,"STATE_CODE":"TAS"},{"LATITUDE":-40.8916344993,"LOCALITY_NAME":"ROCKY CAPE","LONGITUDE":145.4789957644,"POSTCODE":7321,"STATE_CODE":"TAS"},{"LATITUDE":-42.3032441819,"LOCALITY_NAME":"OATLANDS","LONGITUDE":147.36879591,"POSTCODE":7120,"STATE_CODE":"TAS"},{"LATITUDE":-41.072189895,"LOCALITY_NAME":"UPPER BURNIE","LONGITUDE":145.899241268,"POSTCODE":7320,"STATE_CODE":"TAS"},{"LATITUDE":-40.964724574,"LOCALITY_NAME":"SISTERS CREEK","LONGITUDE":145.5657540615,"POSTCODE":7325,"STATE_CODE":"TAS"},{"LATITUDE":-41.5666688289,"LOCALITY_NAME":"FOUR MILE CREEK","LONGITUDE":148.2881390071,"POSTCODE":7215,"STATE_CODE":"TAS"},{"LATITUDE":-41.193672337,"LOCALITY_NAME":"GAWLER","LONGITUDE":146.1502636818,"POSTCODE":7315,"STATE_CODE":"TAS"},{"LATITUDE":-42.1279619059,"LOCALITY_NAME":"SWANSEA","LONGITUDE":148.0698910844,"POSTCODE":7190,"STATE_CODE":"TAS"},{"LATITUDE":-40.1100095519,"LOCALITY_NAME":"WHITEMARK","LONGITUDE":148.0174464578,"POSTCODE":7255,"STATE_CODE":"TAS"},{"LATITUDE":-40.7633106517,"LOCALITY_NAME":"STANLEY","LONGITUDE":145.2900193675,"POSTCODE":7331,"STATE_CODE":"TAS"},{"LATITUDE":-42.8089363259,"LOCALITY_NAME":"BERRIEDALE","LONGITUDE":147.2483469361,"POSTCODE":7011,"STATE_CODE":"TAS"},{"LATITUDE":-41.5061581475,"LOCALITY_NAME":"HADSPEN","LONGITUDE":147.0656725045,"POSTCODE":7290,"STATE_CODE":"TAS"},{"LATITUDE":-43.2752671565,"LOCALITY_NAME":"VERONA SANDS","LONGITUDE":147.1572843914,"POSTCODE":7112,"STATE_CODE":"TAS"},{"LATITUDE":-41.4392960108,"LOCALITY_NAME":"CLAUDE ROAD","LONGITUDE":146.2637799774,"POSTCODE":7306,"STATE_CODE":"TAS"},{"LATITUDE":-41.0649541809,"LOCALITY_NAME":"MOUNT HICKS","LONGITUDE":145.7375365481,"POSTCODE":7325,"STATE_CODE":"TAS"},{"LATITUDE":-42.8205941143,"LOCALITY_NAME":"ROSETTA","LONGITUDE":147.2542463264,"POSTCODE":7010,"STATE_CODE":"TAS"},{"LATITUDE":-41.7780357529,"LOCALITY_NAME":"ROSEBERY","LONGITUDE":145.5361287222,"POSTCODE":7470,"STATE_CODE":"TAS"},{"LATITUDE":-42.8095445097,"LOCALITY_NAME":"CHIGWELL","LONGITUDE":147.2441323324,"POSTCODE":7011,"STATE_CODE":"TAS"},{"LATITUDE":-41.1936576884,"LOCALITY_NAME":"STONY RISE","LONGITUDE":146.3295600492,"POSTCODE":7310,"STATE_CODE":"TAS"},{"LATITUDE":-42.8894020119,"LOCALITY_NAME":"BATTERY POINT","LONGITUDE":147.3326929214,"POSTCODE":7004,"STATE_CODE":"TAS"},{"LATITUDE":-41.2509971709,"LOCALITY_NAME":"KAROOLA","LONGITUDE":147.149965035,"POSTCODE":7267,"STATE_CODE":"TAS"},{"LATITUDE":-41.4052214594,"LOCALITY_NAME":"KIMBERLEY","LONGITUDE":146.4930444019,"POSTCODE":7304,"STATE_CODE":"TAS"},{"LATITUDE":-42.6109801102,"LOCALITY_NAME":"ELLENDALE","LONGITUDE":146.7144037984,"POSTCODE":7140,"STATE_CODE":"TAS"},{"LATITUDE":-41.038131371,"LOCALITY_NAME":"TROWUTTA","LONGITUDE":145.0834233969,"POSTCODE":7330,"STATE_CODE":"TAS"},{"LATITUDE":-43.1249879951,"LOCALITY_NAME":"KETTERING","LONGITUDE":147.2404857127,"POSTCODE":7155,"STATE_CODE":"TAS"},{"LATITUDE":-42.6562123944,"LOCALITY_NAME":"MANGALORE","LONGITUDE":147.2388126331,"POSTCODE":7030,"STATE_CODE":"TAS"},{"LATITUDE":-40.852457045,"LOCALITY_NAME":"FOREST","LONGITUDE":145.2388052417,"POSTCODE":7330,"STATE_CODE":"TAS"},{"LATITUDE":-41.1516512344,"LOCALITY_NAME":"UPPER STOWPORT","LONGITUDE":145.9013397054,"POSTCODE":7321,"STATE_CODE":"TAS"},{"LATITUDE":-43.0273982396,"LOCALITY_NAME":"HUONVILLE","LONGITUDE":147.0518807507,"POSTCODE":7109,"STATE_CODE":"TAS"},{"LATITUDE":-42.8248013947,"LOCALITY_NAME":"MARION BAY","LONGITUDE":147.8609744306,"POSTCODE":7175,"STATE_CODE":"TAS"},{"LATITUDE":-43.0963698342,"LOCALITY_NAME":"NUBEENA","LONGITUDE":147.7395200722,"POSTCODE":7184,"STATE_CODE":"TAS"},{"LATITUDE":-43.0497634679,"LOCALITY_NAME":"TARANNA","LONGITUDE":147.8653601966,"POSTCODE":7180,"STATE_CODE":"TAS"},{"LATITUDE":-43.1294752621,"LOCALITY_NAME":"NORTH BRUNY","LONGITUDE":147.3442812628,"POSTCODE":7150,"STATE_CODE":"TAS"},{"LATITUDE":-42.9905053374,"LOCALITY_NAME":"OPOSSUM BAY","LONGITUDE":147.404588487,"POSTCODE":7023,"STATE_CODE":"TAS"},{"LATITUDE":-41.4800696119,"LOCALITY_NAME":"PROSPECT VALE","LONGITUDE":147.1221826428,"POSTCODE":7250,"STATE_CODE":"TAS"},{"LATITUDE":-42.8346566621,"LOCALITY_NAME":"GEILSTON BAY","LONGITUDE":147.3517197011,"POSTCODE":7015,"STATE_CODE":"TAS"},{"LATITUDE":-41.0698736527,"LOCALITY_NAME":"WIVENHOE","LONGITUDE":145.9313148202,"POSTCODE":7320,"STATE_CODE":"TAS"},{"LATITUDE":-41.0685914903,"LOCALITY_NAME":"LOW HEAD","LONGITUDE":146.8107214075,"POSTCODE":7253,"STATE_CODE":"TAS"},{"LATITUDE":-40.0480576713,"LOCALITY_NAME":"GRASSY","LONGITUDE":144.0570318135,"POSTCODE":7256,"STATE_CODE":"TAS"},{"LATITUDE":-41.0699818885,"LOCALITY_NAME":"ACTON","LONGITUDE":145.8920755676,"POSTCODE":7320,"STATE_CODE":"TAS"},{"LATITUDE":-41.9279722301,"LOCALITY_NAME":"CAMPBELL TOWN","LONGITUDE":147.4833811615,"POSTCODE":7210,"STATE_CODE":"TAS"},{"LATITUDE":-43.0535381696,"LOCALITY_NAME":"ELECTRONA","LONGITUDE":147.2628466186,"POSTCODE":7054,"STATE_CODE":"TAS"},{"LATITUDE":-43.0295766415,"LOCALITY_NAME":"GLEN HUON","LONGITUDE":146.9544747231,"POSTCODE":7109,"STATE_CODE":"TAS"},{"LATITUDE":-43.1975037695,"LOCALITY_NAME":"LYMINGTON","LONGITUDE":147.0632979731,"POSTCODE":7109,"STATE_CODE":"TAS"},{"LATITUDE":-40.8605534926,"LOCALITY_NAME":"BLACK RIVER","LONGITUDE":145.3209806953,"POSTCODE":7321,"STATE_CODE":"TAS"},{"LATITUDE":-43.0224218603,"LOCALITY_NAME":"HOWDEN","LONGITUDE":147.2974277831,"POSTCODE":7054,"STATE_CODE":"TAS"},{"LATITUDE":-41.1463692232,"LOCALITY_NAME":"HAWLEY BEACH","LONGITUDE":146.5406850237,"POSTCODE":7307,"STATE_CODE":"TAS"},{"LATITUDE":-41.1441249327,"LOCALITY_NAME":"DERBY","LONGITUDE":147.8001828305,"POSTCODE":7264,"STATE_CODE":"TAS"},{"LATITUDE":-41.3521079079,"LOCALITY_NAME":"GRINDELWALD","LONGITUDE":147.0045508981,"POSTCODE":7277,"STATE_CODE":"TAS"},{"LATITUDE":-42.6842341392,"LOCALITY_NAME":"PONTVILLE","LONGITUDE":147.257374211,"POSTCODE":7030,"STATE_CODE":"TAS"},{"LATITUDE":-42.9832550556,"LOCALITY_NAME":"GROVE","LONGITUDE":147.0932660984,"POSTCODE":7109,"STATE_CODE":"TAS"},{"LATITUDE":-42.8489913104,"LOCALITY_NAME":"WEST MOONAH","LONGITUDE":147.2814840735,"POSTCODE":7009,"STATE_CODE":"TAS"},{"LATITUDE":-41.5775891783,"LOCALITY_NAME":"ST MARYS","LONGITUDE":148.1886720938,"POSTCODE":7215,"STATE_CODE":"TAS"},{"LATITUDE":-42.8128686898,"LOCALITY_NAME":"RISDON VALE","LONGITUDE":147.3545729801,"POSTCODE":7016,"STATE_CODE":"TAS"},{"LATITUDE":-40.9180771225,"LOCALITY_NAME":"SISTERS BEACH","LONGITUDE":145.559096311,"POSTCODE":7321,"STATE_CODE":"TAS"},{"LATITUDE":-41.0847739816,"LOCALITY_NAME":"ROMAINE","LONGITUDE":145.8997530117,"POSTCODE":7320,"STATE_CODE":"TAS"},{"LATITUDE":-41.0799290453,"LOCALITY_NAME":"HEYBRIDGE","LONGITUDE":145.9848958216,"POSTCODE":7316,"STATE_CODE":"TAS"},{"LATITUDE":-41.1291219891,"LOCALITY_NAME":"CUPRONA","LONGITUDE":145.9733909133,"POSTCODE":7316,"STATE_CODE":"TAS"},{"LATITUDE":-41.3256227049,"LOCALITY_NAME":"STIEGLITZ","LONGITUDE":148.2964485977,"POSTCODE":7216,"STATE_CODE":"TAS"},{"LATITUDE":-41.1284660517,"LOCALITY_NAME":"YOLLA","LONGITUDE":145.717029661,"POSTCODE":7325,"STATE_CODE":"TAS"},{"LATITUDE":-40.8939500578,"LOCALITY_NAME":"CHRISTMAS HILLS","LONGITUDE":145.0265790133,"POSTCODE":7330,"STATE_CODE":"TAS"},{"LATITUDE":-41.0945394513,"LOCALITY_NAME":"WINNALEAH","LONGITUDE":147.829747402,"POSTCODE":7265,"STATE_CODE":"TAS"},{"LATITUDE":-41.4597943302,"LOCALITY_NAME":"SCAMANDER","LONGITUDE":148.2598460646,"POSTCODE":7215,"STATE_CODE":"TAS"},{"LATITUDE":-43.1604862627,"LOCALITY_NAME":"WOODBRIDGE","LONGITUDE":147.2296305128,"POSTCODE":7162,"STATE_CODE":"TAS"},{"LATITUDE":-42.7249199254,"LOCALITY_NAME":"HONEYWOOD","LONGITUDE":147.287392414,"POSTCODE":7017,"STATE_CODE":"TAS"},{"LATITUDE":-41.1485294798,"LOCALITY_NAME":"WEST RIDGLEY","LONGITUDE":145.7855312192,"POSTCODE":7321,"STATE_CODE":"TAS"},{"LATITUDE":-41.2085272438,"LOCALITY_NAME":"NORTH MOTTON","LONGITUDE":146.1031906762,"POSTCODE":7315,"STATE_CODE":"TAS"},{"LATITUDE":-42.853470933,"LOCALITY_NAME":"MOUNT RUMNEY","LONGITUDE":147.4350264647,"POSTCODE":7170,"STATE_CODE":"TAS"},{"LATITUDE":-42.7812637634,"LOCALITY_NAME":"PENNA","LONGITUDE":147.5069635418,"POSTCODE":7171,"STATE_CODE":"TAS"},{"LATITUDE":-41.0827349948,"LOCALITY_NAME":"HAVENVIEW","LONGITUDE":145.9126040828,"POSTCODE":7320,"STATE_CODE":"TAS"},{"LATITUDE":-41.5460467862,"LOCALITY_NAME":"WESTERN JUNCTION","LONGITUDE":147.2009609494,"POSTCODE":7212,"STATE_CODE":"TAS"},{"LATITUDE":-41.0843035481,"LOCALITY_NAME":"GREENS BEACH","LONGITUDE":146.7410517244,"POSTCODE":7270,"STATE_CODE":"TAS"},{"LATITUDE":-42.6059062158,"LOCALITY_NAME":"BAGDAD","LONGITUDE":147.2185673337,"POSTCODE":7030,"STATE_CODE":"TAS"},{"LATITUDE":-42.9731598482,"LOCALITY_NAME":"LUCASTON","LONGITUDE":147.0463322656,"POSTCODE":7109,"STATE_CODE":"TAS"},{"LATITUDE":-43.008991303,"LOCALITY_NAME":"RANELAGH","LONGITUDE":147.0330961561,"POSTCODE":7109,"STATE_CODE":"TAS"},{"LATITUDE":-40.2100574921,"LOCALITY_NAME":"LADY BARRON","LONGITUDE":148.2362414081,"POSTCODE":7255,"STATE_CODE":"TAS"},{"LATITUDE":-43.1818481589,"LOCALITY_NAME":"GARDNERS BAY","LONGITUDE":147.1302036109,"POSTCODE":7112,"STATE_CODE":"TAS"},{"LATITUDE":-41.0169728914,"LOCALITY_NAME":"BELLINGHAM","LONGITUDE":147.1654793694,"POSTCODE":7254,"STATE_CODE":"TAS"},{"LATITUDE":-41.0634436957,"LOCALITY_NAME":"HILLCREST","LONGITUDE":145.8962762656,"POSTCODE":7320,"STATE_CODE":"TAS"},{"LATITUDE":-42.8169472186,"LOCALITY_NAME":"FORCETT","LONGITUDE":147.638221511,"POSTCODE":7173,"STATE_CODE":"TAS"},{"LATITUDE":-42.9933550693,"LOCALITY_NAME":"SANDFLY","LONGITUDE":147.1924972505,"POSTCODE":7150,"STATE_CODE":"TAS"},{"LATITUDE":-42.8705013574,"LOCALITY_NAME":"ROSNY","LONGITUDE":147.3573590136,"POSTCODE":7018,"STATE_CODE":"TAS"},{"LATITUDE":-41.5698627732,"LOCALITY_NAME":"EVANDALE","LONGITUDE":147.2542608752,"POSTCODE":7212,"STATE_CODE":"TAS"},{"LATITUDE":-42.7453466718,"LOCALITY_NAME":"GAGEBROOK","LONGITUDE":147.2704904262,"POSTCODE":7030,"STATE_CODE":"TAS"},{"LATITUDE":-41.157548573,"LOCALITY_NAME":"SHEARWATER","LONGITUDE":146.536761212,"POSTCODE":7307,"STATE_CODE":"TAS"},{"LATITUDE":-42.9439794248,"LOCALITY_NAME":"TAROONA","LONGITUDE":147.3502359437,"POSTCODE":7053,"STATE_CODE":"TAS"},{"LATITUDE":-42.9263723416,"LOCALITY_NAME":"FERN TREE","LONGITUDE":147.2610418585,"POSTCODE":7054,"STATE_CODE":"TAS"},{"LATITUDE":-41.0145082724,"LOCALITY_NAME":"WEYMOUTH","LONGITUDE":147.1477431873,"POSTCODE":7252,"STATE_CODE":"TAS"},{"LATITUDE":-43.0772657244,"LOCALITY_NAME":"CONINGHAM","LONGITUDE":147.276478377,"POSTCODE":7054,"STATE_CODE":"TAS"},{"LATITUDE":-42.9845452757,"LOCALITY_NAME":"CLIFTON BEACH","LONGITUDE":147.5227293035,"POSTCODE":7020,"STATE_CODE":"TAS"},{"LATITUDE":-41.1913993154,"LOCALITY_NAME":"HIGHCLERE","LONGITUDE":145.8078278343,"POSTCODE":7321,"STATE_CODE":"TAS"},{"LATITUDE":-41.2825629567,"LOCALITY_NAME":"SASSAFRAS","LONGITUDE":146.5022889909,"POSTCODE":7307,"STATE_CODE":"TAS"},{"LATITUDE":-41.6426748356,"LOCALITY_NAME":"FINGAL","LONGITUDE":147.9700172214,"POSTCODE":7214,"STATE_CODE":"TAS"},{"LATITUDE":-41.2995255782,"LOCALITY_NAME":"EXETER","LONGITUDE":146.9452447247,"POSTCODE":7275,"STATE_CODE":"TAS"},{"LATITUDE":-41.2387554245,"LOCALITY_NAME":"HILLWOOD","LONGITUDE":146.9847982103,"POSTCODE":7252,"STATE_CODE":"TAS"},{"LATITUDE":-42.8873132045,"LOCALITY_NAME":"DUNALLEY","LONGITUDE":147.8108294758,"POSTCODE":7177,"STATE_CODE":"TAS"},{"LATITUDE":-42.7487446993,"LOCALITY_NAME":"MAGRA","LONGITUDE":147.0577725678,"POSTCODE":7140,"STATE_CODE":"TAS"},{"LATITUDE":-43.007644984,"LOCALITY_NAME":"ALLENS RIVULET","LONGITUDE":147.2036440862,"POSTCODE":7150,"STATE_CODE":"TAS"},{"LATITUDE":-42.0276620548,"LOCALITY_NAME":"ARTHURS LAKE","LONGITUDE":146.902567229,"POSTCODE":7030,"STATE_CODE":"TAS"},{"LATITUDE":-42.7701870422,"LOCALITY_NAME":"LAWITTA","LONGITUDE":147.034451041,"POSTCODE":7140,"STATE_CODE":"TAS"},{"LATITUDE":-43.4329958271,"LOCALITY_NAME":"SOUTHPORT","LONGITUDE":146.9688814499,"POSTCODE":7109,"STATE_CODE":"TAS"},{"LATITUDE":-41.8092451988,"LOCALITY_NAME":"GRANVILLE HARBOUR","LONGITUDE":145.0381829862,"POSTCODE":7469,"STATE_CODE":"TAS"},{"LATITUDE":-43.1555845607,"LOCALITY_NAME":"PORT HUON","LONGITUDE":146.9610246471,"POSTCODE":7116,"STATE_CODE":"TAS"},{"LATITUDE":-41.5818228049,"LOCALITY_NAME":"QUAMBY BROOK","LONGITUDE":146.6992981496,"POSTCODE":7304,"STATE_CODE":"TAS"},{"LATITUDE":-42.8602607708,"LOCALITY_NAME":"BOOMER BAY","LONGITUDE":147.8335311455,"POSTCODE":7177,"STATE_CODE":"TAS"},{"LATITUDE":-42.7726624354,"LOCALITY_NAME":"BOYER","LONGITUDE":147.0942363668,"POSTCODE":7140,"STATE_CODE":"TAS"},{"LATITUDE":-41.7377135573,"LOCALITY_NAME":"TULLAH","LONGITUDE":145.6166541238,"POSTCODE":7321,"STATE_CODE":"TAS"},{"LATITUDE":-42.6891085084,"LOCALITY_NAME":"TEA TREE","LONGITUDE":147.3406713586,"POSTCODE":7017,"STATE_CODE":"TAS"},{"LATITUDE":-41.5584249335,"LOCALITY_NAME":"MOLE CREEK","LONGITUDE":146.3929368218,"POSTCODE":7304,"STATE_CODE":"TAS"},{"LATITUDE":-43.1089762032,"LOCALITY_NAME":"OYSTER COVE","LONGITUDE":147.2329874593,"POSTCODE":7150,"STATE_CODE":"TAS"},{"LATITUDE":-42.9010736584,"LOCALITY_NAME":"OAKDOWNS","LONGITUDE":147.4555243635,"POSTCODE":7019,"STATE_CODE":"TAS"},{"LATITUDE":-43.0016492495,"LOCALITY_NAME":"BLACKMANS BAY","LONGITUDE":147.3189468922,"POSTCODE":7052,"STATE_CODE":"TAS"},{"LATITUDE":-41.1628283193,"LOCALITY_NAME":"HENRIETTA","LONGITUDE":145.6862634072,"POSTCODE":7325,"STATE_CODE":"TAS"},{"LATITUDE":-42.9717254406,"LOCALITY_NAME":"LONGLEY","LONGITUDE":147.1896545366,"POSTCODE":7150,"STATE_CODE":"TAS"},{"LATITUDE":-43.361400923,"LOCALITY_NAME":"LUNAWANNA","LONGITUDE":147.2314509825,"POSTCODE":7150,"STATE_CODE":"TAS"},{"LATITUDE":-42.1519397934,"LOCALITY_NAME":"STRAHAN","LONGITUDE":145.3245092297,"POSTCODE":7468,"STATE_CODE":"TAS"},{"LATITUDE":-43.3127695347,"LOCALITY_NAME":"DOVER","LONGITUDE":147.0185499633,"POSTCODE":7117,"STATE_CODE":"TAS"},{"LATITUDE":-42.787483626,"LOCALITY_NAME":"DULCOT","LONGITUDE":147.4071155211,"POSTCODE":7025,"STATE_CODE":"TAS"},{"LATITUDE":-41.2077836367,"LOCALITY_NAME":"QUOIBA","LONGITUDE":146.3427487172,"POSTCODE":7310,"STATE_CODE":"TAS"},{"LATITUDE":-43.07552752,"LOCALITY_NAME":"WOODSTOCK","LONGITUDE":147.0363445089,"POSTCODE":7109,"STATE_CODE":"TAS"},{"LATITUDE":-42.821683855,"LOCALITY_NAME":"COPPING","LONGITUDE":147.8014486491,"POSTCODE":7174,"STATE_CODE":"TAS"},{"LATITUDE":-42.8682116572,"LOCALITY_NAME":"CARLTON","LONGITUDE":147.6417074823,"POSTCODE":7173,"STATE_CODE":"TAS"},{"LATITUDE":-41.042386594,"LOCALITY_NAME":"COOEE","LONGITUDE":145.8742325957,"POSTCODE":7320,"STATE_CODE":"TAS"},{"LATITUDE":-42.8676174704,"LOCALITY_NAME":"CARLTON RIVER","LONGITUDE":147.6685851112,"POSTCODE":7173,"STATE_CODE":"TAS"},{"LATITUDE":-41.4350877505,"LOCALITY_NAME":"WAVERLEY","LONGITUDE":147.1876642159,"POSTCODE":7250,"STATE_CODE":"TAS"},{"LATITUDE":-42.9761866699,"LOCALITY_NAME":"LOWER LONGLEY","LONGITUDE":147.1520345355,"POSTCODE":7109,"STATE_CODE":"TAS"},{"LATITUDE":-41.281675047,"LOCALITY_NAME":"GUNNS PLAINS","LONGITUDE":146.0257251303,"POSTCODE":7315,"STATE_CODE":"TAS"},{"LATITUDE":-42.5296854274,"LOCALITY_NAME":"COLEBROOK","LONGITUDE":147.3640338015,"POSTCODE":7027,"STATE_CODE":"TAS"},{"LATITUDE":-41.1811048641,"LOCALITY_NAME":"DON","LONGITUDE":146.3163162301,"POSTCODE":7310,"STATE_CODE":"TAS"},{"LATITUDE":-41.2494841592,"LOCALITY_NAME":"SOUTH RIANA","LONGITUDE":145.9744929485,"POSTCODE":7316,"STATE_CODE":"TAS"},{"LATITUDE":-41.0410258917,"LOCALITY_NAME":"OCEAN VISTA","LONGITUDE":145.8595528482,"POSTCODE":7320,"STATE_CODE":"TAS"},{"LATITUDE":-41.9901839322,"LOCALITY_NAME":"MIENA","LONGITUDE":146.7097009075,"POSTCODE":7030,"STATE_CODE":"TAS"},{"LATITUDE":-42.8427114553,"LOCALITY_NAME":"COLLINSVALE","LONGITUDE":147.1832354426,"POSTCODE":7012,"STATE_CODE":"TAS"},{"LATITUDE":-41.242322881,"LOCALITY_NAME":"ABERDEEN","LONGITUDE":146.3291649271,"POSTCODE":7310,"STATE_CODE":"TAS"},{"LATITUDE":-42.9473787196,"LOCALITY_NAME":"MOUNTAIN RIVER","LONGITUDE":147.1265752776,"POSTCODE":7109,"STATE_CODE":"TAS"},{"LATITUDE":-40.7911356133,"LOCALITY_NAME":"WEST MONTAGU","LONGITUDE":144.8889762997,"POSTCODE":7330,"STATE_CODE":"TAS"},{"LATITUDE":-41.2873155733,"LOCALITY_NAME":"PYENGANA","LONGITUDE":147.9859855487,"POSTCODE":7216,"STATE_CODE":"TAS"},{"LATITUDE":-41.2854835586,"LOCALITY_NAME":"LOWER BARRINGTON","LONGITUDE":146.301447009,"POSTCODE":7306,"STATE_CODE":"TAS"},{"LATITUDE":-41.3460004061,"LOCALITY_NAME":"RAILTON","LONGITUDE":146.4191431031,"POSTCODE":7305,"STATE_CODE":"TAS"},{"LATITUDE":-41.188939694,"LOCALITY_NAME":"SQUEAKING POINT","LONGITUDE":146.559287294,"POSTCODE":7307,"STATE_CODE":"TAS"},{"LATITUDE":-43.2482167122,"LOCALITY_NAME":"EGGS AND BACON BAY","LONGITUDE":147.1016514268,"POSTCODE":7112,"STATE_CODE":"TAS"},{"LATITUDE":-43.3406679249,"LOCALITY_NAME":"STRATHBLANE","LONGITUDE":146.9773421966,"POSTCODE":7109,"STATE_CODE":"TAS"},{"LATITUDE":-42.864635902,"LOCALITY_NAME":"MONTAGU BAY","LONGITUDE":147.3590280954,"POSTCODE":7018,"STATE_CODE":"TAS"},{"LATITUDE":-41.7023930722,"LOCALITY_NAME":"CRESSY","LONGITUDE":147.0820643901,"POSTCODE":7302,"STATE_CODE":"TAS"},{"LATITUDE":-41.4818779596,"LOCALITY_NAME":"MATHINNA","LONGITUDE":147.8852614891,"POSTCODE":7214,"STATE_CODE":"TAS"},{"LATITUDE":-42.6627815769,"LOCALITY_NAME":"GRETNA","LONGITUDE":146.942113757,"POSTCODE":7140,"STATE_CODE":"TAS"},{"LATITUDE":-43.0456051731,"LOCALITY_NAME":"BARRETTA","LONGITUDE":147.2660050352,"POSTCODE":7054,"STATE_CODE":"TAS"},{"LATITUDE":-43.1812721394,"LOCALITY_NAME":"BIRCHS BAY","LONGITUDE":147.231846943,"POSTCODE":7162,"STATE_CODE":"TAS"},{"LATITUDE":-41.3974461725,"LOCALITY_NAME":"BIRRALEE","LONGITUDE":146.8120849476,"POSTCODE":7303,"STATE_CODE":"TAS"},{"LATITUDE":-43.1714054131,"LOCALITY_NAME":"WATTLE GROVE","LONGITUDE":147.0090908914,"POSTCODE":7109,"STATE_CODE":"TAS"},{"LATITUDE":-42.10962529,"LOCALITY_NAME":"COLES BAY","LONGITUDE":148.2621742435,"POSTCODE":7215,"STATE_CODE":"TAS"},{"LATITUDE":-41.217567021,"LOCALITY_NAME":"TEWKESBURY","LONGITUDE":145.722665669,"POSTCODE":7321,"STATE_CODE":"TAS"},{"LATITUDE":-41.0294236143,"LOCALITY_NAME":"MILABENA","LONGITUDE":145.5197181122,"POSTCODE":7325,"STATE_CODE":"TAS"},{"LATITUDE":-41.1665280893,"LOCALITY_NAME":"BRANXHOLM","LONGITUDE":147.7399968116,"POSTCODE":7261,"STATE_CODE":"TAS"},{"LATITUDE":-43.1875299056,"LOCALITY_NAME":"PETCHEYS BAY","LONGITUDE":147.0104899322,"POSTCODE":7109,"STATE_CODE":"TAS"},{"LATITUDE":-43.3569665346,"LOCALITY_NAME":"ADVENTURE BAY","LONGITUDE":147.3318819641,"POSTCODE":7150,"STATE_CODE":"TAS"},{"LATITUDE":-41.7449892139,"LOCALITY_NAME":"SEYMOUR","LONGITUDE":148.2908960116,"POSTCODE":7215,"STATE_CODE":"TAS"},{"LATITUDE":-42.0233781448,"LOCALITY_NAME":"LAKE LEAKE","LONGITUDE":147.8162759079,"POSTCODE":7210,"STATE_CODE":"TAS"},{"LATITUDE":-41.2245272294,"LOCALITY_NAME":"SIDMOUTH","LONGITUDE":146.8829570711,"POSTCODE":7270,"STATE_CODE":"TAS"},{"LATITUDE":-41.1017054409,"LOCALITY_NAME":"KELSO","LONGITUDE":146.790063816,"POSTCODE":7270,"STATE_CODE":"TAS"},{"LATITUDE":-42.5304788876,"LOCALITY_NAME":"KEMPTON","LONGITUDE":147.199132654,"POSTCODE":7030,"STATE_CODE":"TAS"},{"LATITUDE":-41.5283891683,"LOCALITY_NAME":"HAGLEY","LONGITUDE":146.901251776,"POSTCODE":7292,"STATE_CODE":"TAS"},{"LATITUDE":-41.194574255,"LOCALITY_NAME":"MIANDETTA","LONGITUDE":146.3528408325,"POSTCODE":7310,"STATE_CODE":"TAS"},{"LATITUDE":-42.9009331275,"LOCALITY_NAME":"DYNNYRNE","LONGITUDE":147.3147100396,"POSTCODE":7005,"STATE_CODE":"TAS"},{"LATITUDE":-40.8713921455,"LOCALITY_NAME":"TOMAHAWK","LONGITUDE":147.7617613867,"POSTCODE":7262,"STATE_CODE":"TAS"},{"LATITUDE":-40.9688618019,"LOCALITY_NAME":"MAWBANNA","LONGITUDE":145.3645141202,"POSTCODE":7321,"STATE_CODE":"TAS"},{"LATITUDE":-41.1846885543,"LOCALITY_NAME":"TONGANAH","LONGITUDE":147.5913991243,"POSTCODE":7260,"STATE_CODE":"TAS"},{"LATITUDE":-41.0722756941,"LOCALITY_NAME":"BROOKLYN","LONGITUDE":145.9074003729,"POSTCODE":7320,"STATE_CODE":"TAS"},{"LATITUDE":-40.8733049206,"LOCALITY_NAME":"HELLYER","LONGITUDE":145.4409075498,"POSTCODE":7321,"STATE_CODE":"TAS"},{"LATITUDE":-41.2983980911,"LOCALITY_NAME":"WINKLEIGH","LONGITUDE":146.846498533,"POSTCODE":7275,"STATE_CODE":"TAS"},{"LATITUDE":-42.5688489129,"LOCALITY_NAME":"DYSART","LONGITUDE":147.1890162591,"POSTCODE":7030,"STATE_CODE":"TAS"},{"LATITUDE":-41.0105636219,"LOCALITY_NAME":"DOCTORS ROCKS","LONGITUDE":145.7799185351,"POSTCODE":7325,"STATE_CODE":"TAS"},{"LATITUDE":-42.8892432317,"LOCALITY_NAME":"CLARENDON VALE","LONGITUDE":147.4451029334,"POSTCODE":7019,"STATE_CODE":"TAS"},{"LATITUDE":-41.3839122126,"LOCALITY_NAME":"NIETTA","LONGITUDE":146.0630820219,"POSTCODE":7315,"STATE_CODE":"TAS"},{"LATITUDE":-43.2485916322,"LOCALITY_NAME":"POLICE POINT","LONGITUDE":147.0438848075,"POSTCODE":7116,"STATE_CODE":"TAS"},{"LATITUDE":-42.5577847814,"LOCALITY_NAME":"HAMILTON","LONGITUDE":146.838569801,"POSTCODE":7140,"STATE_CODE":"TAS"},{"LATITUDE":-42.8269930147,"LOCALITY_NAME":"GOODWOOD","LONGITUDE":147.2931207308,"POSTCODE":7010,"STATE_CODE":"TAS"},{"LATITUDE":-40.9993626419,"LOCALITY_NAME":"MOORLEAH","LONGITUDE":145.6151599684,"POSTCODE":7325,"STATE_CODE":"TAS"},{"LATITUDE":-43.1568169123,"LOCALITY_NAME":"CYGNET","LONGITUDE":147.0755740864,"POSTCODE":7112,"STATE_CODE":"TAS"},{"LATITUDE":-39.9423378326,"LOCALITY_NAME":"NUGARA","LONGITUDE":143.9028051322,"POSTCODE":7256,"STATE_CODE":"TAS"},{"LATITUDE":-41.1565619861,"LOCALITY_NAME":"YORK TOWN","LONGITUDE":146.7584418883,"POSTCODE":7270,"STATE_CODE":"TAS"},{"LATITUDE":-42.298251348,"LOCALITY_NAME":"TARRALEAH","LONGITUDE":146.4416513014,"POSTCODE":7140,"STATE_CODE":"TAS"},{"LATITUDE":-41.0949926293,"LOCALITY_NAME":"HOWTH","LONGITUDE":146.0017894057,"POSTCODE":7316,"STATE_CODE":"TAS"},{"LATITUDE":-41.4452977622,"LOCALITY_NAME":"WARATAH","LONGITUDE":145.5300568785,"POSTCODE":7321,"STATE_CODE":"TAS"},{"LATITUDE":-42.809083737,"LOCALITY_NAME":"MOLESWORTH","LONGITUDE":147.1364183215,"POSTCODE":7140,"STATE_CODE":"TAS"},{"LATITUDE":-41.2001716392,"LOCALITY_NAME":"TUGRAH","LONGITUDE":146.3124705903,"POSTCODE":7310,"STATE_CODE":"TAS"},{"LATITUDE":-41.4201386102,"LOCALITY_NAME":"ROSEVALE","LONGITUDE":146.9269442683,"POSTCODE":7292,"STATE_CODE":"TAS"},{"LATITUDE":-42.9270770536,"LOCALITY_NAME":"RIDGEWAY","LONGITUDE":147.2878342166,"POSTCODE":7054,"STATE_CODE":"TAS"},{"LATITUDE":-42.6941659458,"LOCALITY_NAME":"GLENORA","LONGITUDE":146.884842255,"POSTCODE":7140,"STATE_CODE":"TAS"},{"LATITUDE":-42.7504630523,"LOCALITY_NAME":"HERDSMANS COVE","LONGITUDE":147.2644559347,"POSTCODE":7030,"STATE_CODE":"TAS"},{"LATITUDE":-41.0626044129,"LOCALITY_NAME":"SOUTH BURNIE","LONGITUDE":145.9090653896,"POSTCODE":7320,"STATE_CODE":"TAS"},{"LATITUDE":-41.5122986659,"LOCALITY_NAME":"WHITE HILLS","LONGITUDE":147.2691753792,"POSTCODE":7258,"STATE_CODE":"TAS"},{"LATITUDE":-42.9571718259,"LOCALITY_NAME":"MURDUNNA","LONGITUDE":147.8493494927,"POSTCODE":7178,"STATE_CODE":"TAS"},{"LATITUDE":-42.9651508972,"LOCALITY_NAME":"LESLIE VALE","LONGITUDE":147.2287817206,"POSTCODE":7054,"STATE_CODE":"TAS"},{"LATITUDE":-40.9616942379,"LOCALITY_NAME":"LILEAH","LONGITUDE":145.1684125229,"POSTCODE":7330,"STATE_CODE":"TAS"},{"LATITUDE":-41.3145580887,"LOCALITY_NAME":"WINDERMERE","LONGITUDE":147.0209559665,"POSTCODE":7252,"STATE_CODE":"TAS"},{"LATITUDE":-41.2960933893,"LOCALITY_NAME":"PRESTON","LONGITUDE":146.0637636794,"POSTCODE":7315,"STATE_CODE":"TAS"},{"LATITUDE":-42.6761585491,"LOCALITY_NAME":"WESTERWAY","LONGITUDE":146.7896684218,"POSTCODE":7140,"STATE_CODE":"TAS"},{"LATITUDE":-41.1098454942,"LOCALITY_NAME":"STOWPORT","LONGITUDE":145.9287313197,"POSTCODE":7321,"STATE_CODE":"TAS"},{"LATITUDE":-40.9424897336,"LOCALITY_NAME":"BOAT HARBOUR","LONGITUDE":145.625448128,"POSTCODE":7321,"STATE_CODE":"TAS"},{"LATITUDE":-41.4946307302,"LOCALITY_NAME":"TRAVELLERS REST","LONGITUDE":147.0897805854,"POSTCODE":7250,"STATE_CODE":"TAS"},{"LATITUDE":-39.8417404046,"LOCALITY_NAME":"KILLIECRANKIE","LONGITUDE":147.837928377,"POSTCODE":7255,"STATE_CODE":"TAS"},{"LATITUDE":-42.969279004,"LOCALITY_NAME":"BONNET HILL","LONGITUDE":147.3313100296,"POSTCODE":7053,"STATE_CODE":"TAS"},{"LATITUDE":-43.2635977741,"LOCALITY_NAME":"GORDON","LONGITUDE":147.227504713,"POSTCODE":7150,"STATE_CODE":"TAS"},{"LATITUDE":-41.2869868847,"LOCALITY_NAME":"MYRTLE BANK","LONGITUDE":147.3592623503,"POSTCODE":7259,"STATE_CODE":"TAS"},{"LATITUDE":-42.8591251448,"LOCALITY_NAME":"SEVEN MILE BEACH","LONGITUDE":147.5044473217,"POSTCODE":7170,"STATE_CODE":"TAS"},{"LATITUDE":-43.066801908,"LOCALITY_NAME":"SNUG","LONGITUDE":147.2529072477,"POSTCODE":7054,"STATE_CODE":"TAS"},{"LATITUDE":-43.2224616551,"LOCALITY_NAME":"SURGES BAY","LONGITUDE":146.9992725871,"POSTCODE":7116,"STATE_CODE":"TAS"},{"LATITUDE":-41.0839239944,"LOCALITY_NAME":"DOWNLANDS","LONGITUDE":145.8909191648,"POSTCODE":7320,"STATE_CODE":"TAS"},{"LATITUDE":-42.4746970534,"LOCALITY_NAME":"OUSE","LONGITUDE":146.7090393932,"POSTCODE":7140,"STATE_CODE":"TAS"},{"LATITUDE":-42.8043799345,"LOCALITY_NAME":"OTAGO","LONGITUDE":147.2944637583,"POSTCODE":7017,"STATE_CODE":"TAS"},{"LATITUDE":-43.2846396391,"LOCALITY_NAME":"SURVEYORS BAY","LONGITUDE":147.0876665709,"POSTCODE":7116,"STATE_CODE":"TAS"},{"LATITUDE":-42.6898520633,"LOCALITY_NAME":"NATIONAL PARK","LONGITUDE":146.7190232397,"POSTCODE":7140,"STATE_CODE":"TAS"},{"LATITUDE":-42.7276888924,"LOCALITY_NAME":"ORIELTON","LONGITUDE":147.5262538598,"POSTCODE":7172,"STATE_CODE":"TAS"},{"LATITUDE":-41.1963576479,"LOCALITY_NAME":"WESLEY VALE","LONGITUDE":146.4387082,"POSTCODE":7307,"STATE_CODE":"TAS"},{"LATITUDE":-40.8951254241,"LOCALITY_NAME":"SCOTCHTOWN","LONGITUDE":145.119119758,"POSTCODE":7330,"STATE_CODE":"TAS"},{"LATITUDE":-40.8569399199,"LOCALITY_NAME":"CRAYFISH CREEK","LONGITUDE":145.4010491435,"POSTCODE":7321,"STATE_CODE":"TAS"},{"LATITUDE":-41.4952947244,"LOCALITY_NAME":"RELBIA","LONGITUDE":147.1960343014,"POSTCODE":7258,"STATE_CODE":"TAS"},{"LATITUDE":-42.0942588835,"LOCALITY_NAME":"DOLPHIN SANDS","LONGITUDE":148.1402292262,"POSTCODE":7190,"STATE_CODE":"TAS"},{"LATITUDE":-43.2709972938,"LOCALITY_NAME":"CHARLOTTE COVE","LONGITUDE":147.1452714446,"POSTCODE":7112,"STATE_CODE":"TAS"},{"LATITUDE":-41.2679902241,"LOCALITY_NAME":"SPRENT","LONGITUDE":146.1572414462,"POSTCODE":7315,"STATE_CODE":"TAS"},{"LATITUDE":-43.2445392686,"LOCALITY_NAME":"GLENDEVIE","LONGITUDE":146.9977562126,"POSTCODE":7109,"STATE_CODE":"TAS"},{"LATITUDE":-40.9686061251,"LOCALITY_NAME":"FLOWERDALE","LONGITUDE":145.6671174911,"POSTCODE":7325,"STATE_CODE":"TAS"},{"LATITUDE":-41.2620631954,"LOCALITY_NAME":"LOIRA","LONGITUDE":146.9052239966,"POSTCODE":7275,"STATE_CODE":"TAS"},{"LATITUDE":-39.8687870312,"LOCALITY_NAME":"LOORANA","LONGITUDE":143.8913204319,"POSTCODE":7256,"STATE_CODE":"TAS"},{"LATITUDE":-42.7432577463,"LOCALITY_NAME":"PAWLEENA","LONGITUDE":147.5887851042,"POSTCODE":7172,"STATE_CODE":"TAS"},{"LATITUDE":-41.2360812463,"LOCALITY_NAME":"DEVIOT","LONGITUDE":146.9285108213,"POSTCODE":7275,"STATE_CODE":"TAS"},{"LATITUDE":-41.0986102012,"LOCALITY_NAME":"LEFROY","LONGITUDE":146.9896763872,"POSTCODE":7252,"STATE_CODE":"TAS"},{"LATITUDE":-41.2150613679,"LOCALITY_NAME":"MOUNT DIRECTION","LONGITUDE":147.0199557449,"POSTCODE":7252,"STATE_CODE":"TAS"},{"LATITUDE":-41.2364903619,"LOCALITY_NAME":"SPALFORD","LONGITUDE":146.1843599765,"POSTCODE":7315,"STATE_CODE":"TAS"},{"LATITUDE":-43.2454971509,"LOCALITY_NAME":"GARDEN ISLAND CREEK","LONGITUDE":147.1561459342,"POSTCODE":7112,"STATE_CODE":"TAS"},{"LATITUDE":-40.0036018416,"LOCALITY_NAME":"EMITA","LONGITUDE":147.9048361197,"POSTCODE":7255,"STATE_CODE":"TAS"},{"LATITUDE":-42.9529093689,"LOCALITY_NAME":"NEIKA","LONGITUDE":147.2270307729,"POSTCODE":7054,"STATE_CODE":"TAS"},{"LATITUDE":-40.0214593185,"LOCALITY_NAME":"LYMWOOD","LONGITUDE":143.999798859,"POSTCODE":7256,"STATE_CODE":"TAS"},{"LATITUDE":-42.9086397132,"LOCALITY_NAME":"TOLMANS HILL","LONGITUDE":147.3068236461,"POSTCODE":7007,"STATE_CODE":"TAS"},{"LATITUDE":-43.1145660277,"LOCALITY_NAME":"CRADOC","LONGITUDE":147.0344607022,"POSTCODE":7109,"STATE_CODE":"TAS"},{"LATITUDE":-42.9557769572,"LOCALITY_NAME":"CREMORNE","LONGITUDE":147.5300270747,"POSTCODE":7024,"STATE_CODE":"TAS"},{"LATITUDE":-43.0794261264,"LOCALITY_NAME":"LOWER SNUG","LONGITUDE":147.259044102,"POSTCODE":7054,"STATE_CODE":"TAS"},{"LATITUDE":-41.2387453506,"LOCALITY_NAME":"TARLETON","LONGITUDE":146.3734548805,"POSTCODE":7310,"STATE_CODE":"TAS"},{"LATITUDE":-43.1635203074,"LOCALITY_NAME":"APOLLO BAY","LONGITUDE":147.2909860928,"POSTCODE":7150,"STATE_CODE":"TAS"},{"LATITUDE":-41.3065554099,"LOCALITY_NAME":"AKAROA","LONGITUDE":148.3148301291,"POSTCODE":7216,"STATE_CODE":"TAS"},{"LATITUDE":-43.205227913,"LOCALITY_NAME":"DEEP BAY","LONGITUDE":147.1145074532,"POSTCODE":7112,"STATE_CODE":"TAS"},{"LATITUDE":-40.9263856444,"LOCALITY_NAME":"ALCOMIE","LONGITUDE":145.1950677016,"POSTCODE":7330,"STATE_CODE":"TAS"},{"LATITUDE":-43.2122434114,"LOCALITY_NAME":"GREAT BAY","LONGITUDE":147.3819481051,"POSTCODE":7150,"STATE_CODE":"TAS"},{"LATITUDE":-41.2317064374,"LOCALITY_NAME":"NORTH LILYDALE","LONGITUDE":147.2428252095,"POSTCODE":7268,"STATE_CODE":"TAS"},{"LATITUDE":-40.8405100252,"LOCALITY_NAME":"MUSSELROE BAY","LONGITUDE":148.1754003553,"POSTCODE":7264,"STATE_CODE":"TAS"},{"LATITUDE":-42.8205767247,"LOCALITY_NAME":"RISDON","LONGITUDE":147.3228305383,"POSTCODE":7017,"STATE_CODE":"TAS"},{"LATITUDE":-43.0799226161,"LOCALITY_NAME":"UPPER WOODSTOCK","LONGITUDE":147.0736896743,"POSTCODE":7150,"STATE_CODE":"TAS"},{"LATITUDE":-42.9461124242,"LOCALITY_NAME":"CRABTREE","LONGITUDE":147.0683823344,"POSTCODE":7109,"STATE_CODE":"TAS"},{"LATITUDE":-40.9293105679,"LOCALITY_NAME":"BOAT HARBOUR BEACH","LONGITUDE":145.6173126227,"POSTCODE":7321,"STATE_CODE":"TAS"},{"LATITUDE":-41.1255112911,"LOCALITY_NAME":"NORTH SCOTTSDALE","LONGITUDE":147.5601075233,"POSTCODE":7260,"STATE_CODE":"TAS"},{"LATITUDE":-41.991335727,"LOCALITY_NAME":"CRANBROOK","LONGITUDE":148.076542545,"POSTCODE":7190,"STATE_CODE":"TAS"},{"LATITUDE":-42.7683262333,"LOCALITY_NAME":"UXBRIDGE","LONGITUDE":146.8664435122,"POSTCODE":7140,"STATE_CODE":"TAS"},{"LATITUDE":-42.1486678321,"LOCALITY_NAME":"BRONTE PARK","LONGITUDE":146.481246859,"POSTCODE":7140,"STATE_CODE":"TAS"},{"LATITUDE":-43.1325433304,"LOCALITY_NAME":"CASTLE FORBES BAY","LONGITUDE":146.9699566433,"POSTCODE":7116,"STATE_CODE":"TAS"},{"LATITUDE":-43.0700397241,"LOCALITY_NAME":"KOONYA","LONGITUDE":147.8139542218,"POSTCODE":7187,"STATE_CODE":"TAS"},{"LATITUDE":-42.6664187223,"LOCALITY_NAME":"BROADMARSH","LONGITUDE":147.1328867714,"POSTCODE":7030,"STATE_CODE":"TAS"},{"LATITUDE":-42.1828921682,"LOCALITY_NAME":"LONDON LAKES","LONGITUDE":146.5527436621,"POSTCODE":7140,"STATE_CODE":"TAS"},{"LATITUDE":-43.3794875206,"LOCALITY_NAME":"SOUTH BRUNY","LONGITUDE":147.2443806983,"POSTCODE":7150,"STATE_CODE":"TAS"},{"LATITUDE":-42.8201042917,"LOCALITY_NAME":"GLENLUSK","LONGITUDE":147.2026001901,"POSTCODE":7012,"STATE_CODE":"TAS"},{"LATITUDE":-41.3189252836,"LOCALITY_NAME":"DILSTON","LONGITUDE":147.0636836246,"POSTCODE":7252,"STATE_CODE":"TAS"},{"LATITUDE":-41.1969481831,"LOCALITY_NAME":"KAYENA","LONGITUDE":146.9038792106,"POSTCODE":7270,"STATE_CODE":"TAS"},{"LATITUDE":-41.17253279,"LOCALITY_NAME":"THE GARDENS","LONGITUDE":148.2776805554,"POSTCODE":7216,"STATE_CODE":"TAS"},{"LATITUDE":-40.8889111109,"LOCALITY_NAME":"SOUTH FOREST","LONGITUDE":145.2409673278,"POSTCODE":7330,"STATE_CODE":"TAS"},{"LATITUDE":-43.0129902648,"LOCALITY_NAME":"SALTWATER RIVER","LONGITUDE":147.7078543705,"POSTCODE":7186,"STATE_CODE":"TAS"},{"LATITUDE":-41.2575316443,"LOCALITY_NAME":"LALLA","LONGITUDE":147.1842436907,"POSTCODE":7267,"STATE_CODE":"TAS"},{"LATITUDE":-42.7221896865,"LOCALITY_NAME":"NUGENT","LONGITUDE":147.7430219686,"POSTCODE":7172,"STATE_CODE":"TAS"},{"LATITUDE":-43.0559236906,"LOCALITY_NAME":"PREMAYDENA","LONGITUDE":147.7655006982,"POSTCODE":7185,"STATE_CODE":"TAS"},{"LATITUDE":-41.0518645309,"LOCALITY_NAME":"ARTHUR RIVER","LONGITUDE":144.6669443218,"POSTCODE":7330,"STATE_CODE":"TAS"},{"LATITUDE":-41.2932448631,"LOCALITY_NAME":"TURNERS MARSH","LONGITUDE":147.1220981949,"POSTCODE":7267,"STATE_CODE":"TAS"},{"LATITUDE":-41.0411716643,"LOCALITY_NAME":"CAMDALE","LONGITUDE":145.8457557237,"POSTCODE":7320,"STATE_CODE":"TAS"},{"LATITUDE":-41.4544294993,"LOCALITY_NAME":"LOWER BEULAH","LONGITUDE":146.4061899517,"POSTCODE":7306,"STATE_CODE":"TAS"},{"LATITUDE":-40.9835905822,"LOCALITY_NAME":"MYALLA","LONGITUDE":145.5697337381,"POSTCODE":7325,"STATE_CODE":"TAS"},{"LATITUDE":-41.5092271877,"LOCALITY_NAME":"BLESSINGTON","LONGITUDE":147.4406168682,"POSTCODE":7212,"STATE_CODE":"TAS"},{"LATITUDE":-41.3813552298,"LOCALITY_NAME":"BRIDGENORTH","LONGITUDE":146.9642026765,"POSTCODE":7277,"STATE_CODE":"TAS"},{"LATITUDE":-41.4377586511,"LOCALITY_NAME":"BEULAH","LONGITUDE":146.382513308,"POSTCODE":7306,"STATE_CODE":"TAS"},{"LATITUDE":-41.1414962313,"LOCALITY_NAME":"RIDGLEY","LONGITUDE":145.8379386486,"POSTCODE":7321,"STATE_CODE":"TAS"},{"LATITUDE":-39.9988481894,"LOCALITY_NAME":"YARRA CREEK","LONGITUDE":144.0873384575,"POSTCODE":7256,"STATE_CODE":"TAS"},{"LATITUDE":-41.2431853809,"LOCALITY_NAME":"FLOWERY GULLY","LONGITUDE":146.8193837662,"POSTCODE":7270,"STATE_CODE":"TAS"},{"LATITUDE":-41.6193026363,"LOCALITY_NAME":"BISHOPSBOURNE","LONGITUDE":146.9939142688,"POSTCODE":7301,"STATE_CODE":"TAS"},{"LATITUDE":-41.4887902007,"LOCALITY_NAME":"DUNORLAN","LONGITUDE":146.5397050094,"POSTCODE":7304,"STATE_CODE":"TAS"},{"LATITUDE":-41.4004894268,"LOCALITY_NAME":"PARKHAM","LONGITUDE":146.6186022841,"POSTCODE":7304,"STATE_CODE":"TAS"},{"LATITUDE":-42.9623296082,"LOCALITY_NAME":"LONNAVALE","LONGITUDE":146.8193721218,"POSTCODE":7109,"STATE_CODE":"TAS"},{"LATITUDE":-41.6516872829,"LOCALITY_NAME":"MEANDER","LONGITUDE":146.6088774162,"POSTCODE":7304,"STATE_CODE":"TAS"},{"LATITUDE":-42.3261925729,"LOCALITY_NAME":"LITTLE SWANPORT","LONGITUDE":147.9606812219,"POSTCODE":7190,"STATE_CODE":"TAS"},{"LATITUDE":-41.2058086186,"LOCALITY_NAME":"RIANA","LONGITUDE":145.9900628638,"POSTCODE":7316,"STATE_CODE":"TAS"},{"LATITUDE":-41.38766106,"LOCALITY_NAME":"MAYFIELD","LONGITUDE":147.1312906346,"POSTCODE":7248,"STATE_CODE":"TAS"},{"LATITUDE":-41.0767656952,"LOCALITY_NAME":"EMU HEIGHTS","LONGITUDE":145.9201526403,"POSTCODE":7320,"STATE_CODE":"TAS"},{"LATITUDE":-41.5300940347,"LOCALITY_NAME":"RED HILLS","LONGITUDE":146.5865176923,"POSTCODE":7304,"STATE_CODE":"TAS"},{"LATITUDE":-41.7001547602,"LOCALITY_NAME":"JACKEYS MARSH","LONGITUDE":146.6668993417,"POSTCODE":7304,"STATE_CODE":"TAS"},{"LATITUDE":-41.1010957339,"LOCALITY_NAME":"ELLIOTT","LONGITUDE":145.7741978639,"POSTCODE":7325,"STATE_CODE":"TAS"},{"LATITUDE":-39.9176662414,"LOCALITY_NAME":"NARACOOPA","LONGITUDE":144.1154454451,"POSTCODE":7256,"STATE_CODE":"TAS"},{"LATITUDE":-42.6539455323,"LOCALITY_NAME":"FENTONBURY","LONGITUDE":146.7616624277,"POSTCODE":7140,"STATE_CODE":"TAS"},{"LATITUDE":-42.7776541936,"LOCALITY_NAME":"KELLEVIE","LONGITUDE":147.8020058484,"POSTCODE":7176,"STATE_CODE":"TAS"},{"LATITUDE":-41.4562907615,"LOCALITY_NAME":"ELIZABETH TOWN","LONGITUDE":146.5737501759,"POSTCODE":7304,"STATE_CODE":"TAS"},{"LATITUDE":-42.7059029633,"LOCALITY_NAME":"ROSEGARLAND","LONGITUDE":146.9433889754,"POSTCODE":7140,"STATE_CODE":"TAS"},{"LATITUDE":-42.7983394496,"LOCALITY_NAME":"GLENFERN","LONGITUDE":146.9961861049,"POSTCODE":7140,"STATE_CODE":"TAS"},{"LATITUDE":-43.2425125651,"LOCALITY_NAME":"RANDALLS BAY","LONGITUDE":147.127693595,"POSTCODE":7112,"STATE_CODE":"TAS"},{"LATITUDE":-41.5382002698,"LOCALITY_NAME":"LORINNA","LONGITUDE":146.1430704474,"POSTCODE":7306,"STATE_CODE":"TAS"},{"LATITUDE":-41.3724078248,"LOCALITY_NAME":"NOWHERE ELSE","LONGITUDE":146.2693652944,"POSTCODE":7306,"STATE_CODE":"TAS"},{"LATITUDE":-42.8857453757,"LOCALITY_NAME":"ROCHES BEACH","LONGITUDE":147.4961109953,"POSTCODE":7170,"STATE_CODE":"TAS"},{"LATITUDE":-39.7628465205,"LOCALITY_NAME":"PALANA","LONGITUDE":147.8951086163,"POSTCODE":7255,"STATE_CODE":"TAS"},{"LATITUDE":-41.2319193118,"LOCALITY_NAME":"UPPER NATONE","LONGITUDE":145.8912530649,"POSTCODE":7321,"STATE_CODE":"TAS"},{"LATITUDE":-41.2622062463,"LOCALITY_NAME":"PALOONA","LONGITUDE":146.2687634035,"POSTCODE":7310,"STATE_CODE":"TAS"},{"LATITUDE":-41.1481248385,"LOCALITY_NAME":"BLUMONT","LONGITUDE":147.40918726,"POSTCODE":7260,"STATE_CODE":"TAS"},{"LATITUDE":-41.1951941661,"LOCALITY_NAME":"TUNNEL","LONGITUDE":147.185124702,"POSTCODE":7254,"STATE_CODE":"TAS"},{"LATITUDE":-42.4690215545,"LOCALITY_NAME":"TUNNACK","LONGITUDE":147.4560114863,"POSTCODE":7120,"STATE_CODE":"TAS"},{"LATITUDE":-42.5829020326,"LOCALITY_NAME":"SPRING BEACH","LONGITUDE":147.9078270381,"POSTCODE":7190,"STATE_CODE":"TAS"},{"LATITUDE":-41.3962566568,"LOCALITY_NAME":"WEST KENTISH","LONGITUDE":146.2526450856,"POSTCODE":7306,"STATE_CODE":"TAS"},{"LATITUDE":-43.4322339506,"LOCALITY_NAME":"LUNE RIVER","LONGITUDE":146.9041072856,"POSTCODE":7109,"STATE_CODE":"TAS"},{"LATITUDE":-41.5996948115,"LOCALITY_NAME":"DEDDINGTON","LONGITUDE":147.4321300513,"POSTCODE":7212,"STATE_CODE":"TAS"},{"LATITUDE":-43.2322653386,"LOCALITY_NAME":"BROOKS BAY","LONGITUDE":147.0240160467,"POSTCODE":7116,"STATE_CODE":"TAS"},{"LATITUDE":-41.1765437761,"LOCALITY_NAME":"ROWELLA","LONGITUDE":146.9047978198,"POSTCODE":7270,"STATE_CODE":"TAS"},{"LATITUDE":-42.5998464922,"LOCALITY_NAME":"ELDERSLIE","LONGITUDE":147.0704895885,"POSTCODE":7030,"STATE_CODE":"TAS"},{"LATITUDE":-41.0886369719,"LOCALITY_NAME":"OLDINA","LONGITUDE":145.6730345378,"POSTCODE":7325,"STATE_CODE":"TAS"},{"LATITUDE":-40.941131656,"LOCALITY_NAME":"REDPA","LONGITUDE":144.7558633105,"POSTCODE":7330,"STATE_CODE":"TAS"},{"LATITUDE":-41.6058307782,"LOCALITY_NAME":"CAVESIDE","LONGITUDE":146.4417534005,"POSTCODE":7304,"STATE_CODE":"TAS"},{"LATITUDE":-41.23142637,"LOCALITY_NAME":"EUGENANA","LONGITUDE":146.314290419,"POSTCODE":7310,"STATE_CODE":"TAS"},{"LATITUDE":-40.9512841576,"LOCALITY_NAME":"WATERHOUSE","LONGITUDE":147.6171823223,"POSTCODE":7262,"STATE_CODE":"TAS"},{"LATITUDE":-41.2236065638,"LOCALITY_NAME":"LOTTAH","LONGITUDE":148.0191608431,"POSTCODE":7216,"STATE_CODE":"TAS"},{"LATITUDE":-42.82783118,"LOCALITY_NAME":"MOUNT LLOYD","LONGITUDE":146.9564096886,"POSTCODE":7140,"STATE_CODE":"TAS"},{"LATITUDE":-41.3054117829,"LOCALITY_NAME":"UNDERWOOD","LONGITUDE":147.1960761118,"POSTCODE":7268,"STATE_CODE":"TAS"},{"LATITUDE":-43.0250498764,"LOCALITY_NAME":"KAOOTA","LONGITUDE":147.1648372729,"POSTCODE":7150,"STATE_CODE":"TAS"},{"LATITUDE":-43.0410960179,"LOCALITY_NAME":"TINDERBOX","LONGITUDE":147.3247524742,"POSTCODE":7054,"STATE_CODE":"TAS"},{"LATITUDE":-41.2492470504,"LOCALITY_NAME":"MELROSE","LONGITUDE":146.293665811,"POSTCODE":7310,"STATE_CODE":"TAS"},{"LATITUDE":-41.0291238466,"LOCALITY_NAME":"BEECHFORD","LONGITUDE":146.9530925368,"POSTCODE":7252,"STATE_CODE":"TAS"},{"LATITUDE":-42.704048269,"LOCALITY_NAME":"MACQUARIE PLAINS","LONGITUDE":146.9207488448,"POSTCODE":7140,"STATE_CODE":"TAS"},{"LATITUDE":-41.4115118813,"LOCALITY_NAME":"ROLAND","LONGITUDE":146.2354067769,"POSTCODE":7306,"STATE_CODE":"TAS"},{"LATITUDE":-42.9913291584,"LOCALITY_NAME":"JUDBURY","LONGITUDE":146.9231864052,"POSTCODE":7109,"STATE_CODE":"TAS"},{"LATITUDE":-41.5939029952,"LOCALITY_NAME":"MONTANA","LONGITUDE":146.5884249737,"POSTCODE":7304,"STATE_CODE":"TAS"},{"LATITUDE":-42.3557128842,"LOCALITY_NAME":"PARATTAH","LONGITUDE":147.4088389071,"POSTCODE":7120,"STATE_CODE":"TAS"},{"LATITUDE":-41.0977827147,"LOCALITY_NAME":"WEST MOOREVILLE","LONGITUDE":145.8406653047,"POSTCODE":7321,"STATE_CODE":"TAS"},{"LATITUDE":-41.418334784,"LOCALITY_NAME":"BEAUMARIS","LONGITUDE":148.2752671335,"POSTCODE":7215,"STATE_CODE":"TAS"},{"LATITUDE":-41.2578956332,"LOCALITY_NAME":"SWAN POINT","LONGITUDE":146.9670430478,"POSTCODE":7275,"STATE_CODE":"TAS"},{"LATITUDE":-41.8161910088,"LOCALITY_NAME":"BRANDUM","LONGITUDE":146.6781954014,"POSTCODE":7304,"STATE_CODE":"TAS"},{"LATITUDE":-41.8581232828,"LOCALITY_NAME":"REYNOLDS NECK","LONGITUDE":146.6965042075,"POSTCODE":7304,"STATE_CODE":"TAS"},{"LATITUDE":-42.7822969383,"LOCALITY_NAME":"SORELL CREEK","LONGITUDE":147.1038262526,"POSTCODE":7140,"STATE_CODE":"TAS"},{"LATITUDE":-41.083982914,"LOCALITY_NAME":"PIONEER","LONGITUDE":147.9314757942,"POSTCODE":7264,"STATE_CODE":"TAS"},{"LATITUDE":-43.000693287,"LOCALITY_NAME":"SLOPING MAIN","LONGITUDE":147.6716026063,"POSTCODE":7186,"STATE_CODE":"TAS"},{"LATITUDE":-41.1793836016,"LOCALITY_NAME":"NORTHDOWN","LONGITUDE":146.5084261485,"POSTCODE":7307,"STATE_CODE":"TAS"},{"LATITUDE":-42.3818301903,"LOCALITY_NAME":"JERICHO","LONGITUDE":147.2986504246,"POSTCODE":7030,"STATE_CODE":"TAS"},{"LATITUDE":-43.4198904886,"LOCALITY_NAME":"HASTINGS","LONGITUDE":146.9240405246,"POSTCODE":7109,"STATE_CODE":"TAS"},{"LATITUDE":-41.3192446325,"LOCALITY_NAME":"PATERSONIA","LONGITUDE":147.3171391975,"POSTCODE":7259,"STATE_CODE":"TAS"},{"LATITUDE":-41.5513204269,"LOCALITY_NAME":"DEVON HILLS","LONGITUDE":147.1844638264,"POSTCODE":7300,"STATE_CODE":"TAS"},{"LATITUDE":-43.2058726963,"LOCALITY_NAME":"FLOWERPOT","LONGITUDE":147.2519347582,"POSTCODE":7163,"STATE_CODE":"TAS"},{"LATITUDE":-40.9617841574,"LOCALITY_NAME":"GLADSTONE","LONGITUDE":148.0331887056,"POSTCODE":7264,"STATE_CODE":"TAS"},{"LATITUDE":-41.2121201678,"LOCALITY_NAME":"LEGERWOOD","LONGITUDE":147.7001680368,"POSTCODE":7263,"STATE_CODE":"TAS"},{"LATITUDE":-41.1587226095,"LOCALITY_NAME":"EAST RIDGLEY","LONGITUDE":145.8496283246,"POSTCODE":7321,"STATE_CODE":"TAS"},{"LATITUDE":-41.5660877076,"LOCALITY_NAME":"OSMASTON","LONGITUDE":146.7564998426,"POSTCODE":7303,"STATE_CODE":"TAS"},{"LATITUDE":-42.7556203851,"LOCALITY_NAME":"MAYDENA","LONGITUDE":146.6232196681,"POSTCODE":7140,"STATE_CODE":"TAS"},{"LATITUDE":-41.3340260931,"LOCALITY_NAME":"BARRINGTON","LONGITUDE":146.2810549709,"POSTCODE":7306,"STATE_CODE":"TAS"},{"LATITUDE":-40.851669491,"LOCALITY_NAME":"COWRIE POINT","LONGITUDE":145.370364298,"POSTCODE":7321,"STATE_CODE":"TAS"},{"LATITUDE":-41.632736845,"LOCALITY_NAME":"GRAY","LONGITUDE":148.2288411395,"POSTCODE":7215,"STATE_CODE":"TAS"},{"LATITUDE":-42.3898106824,"LOCALITY_NAME":"WAYATINAH","LONGITUDE":146.5025706,"POSTCODE":7140,"STATE_CODE":"TAS"},{"LATITUDE":-41.0680637541,"LOCALITY_NAME":"CHASM CREEK","LONGITUDE":145.9665401819,"POSTCODE":7321,"STATE_CODE":"TAS"},{"LATITUDE":-41.6505762367,"LOCALITY_NAME":"NILE","LONGITUDE":147.3316214501,"POSTCODE":7212,"STATE_CODE":"TAS"},{"LATITUDE":-41.184634799,"LOCALITY_NAME":"WYENA","LONGITUDE":147.2647470405,"POSTCODE":7254,"STATE_CODE":"TAS"},{"LATITUDE":-41.1018241294,"LOCALITY_NAME":"MOOREVILLE","LONGITUDE":145.8679546948,"POSTCODE":7321,"STATE_CODE":"TAS"},{"LATITUDE":-41.3340417543,"LOCALITY_NAME":"FRANKFORD","LONGITUDE":146.7617244139,"POSTCODE":7275,"STATE_CODE":"TAS"},{"LATITUDE":-41.6425748134,"LOCALITY_NAME":"GOLDEN VALLEY","LONGITUDE":146.7168143343,"POSTCODE":7304,"STATE_CODE":"TAS"},{"LATITUDE":-42.3951861949,"LOCALITY_NAME":"MOUNT SEYMOUR","LONGITUDE":147.4500030347,"POSTCODE":7120,"STATE_CODE":"TAS"},{"LATITUDE":-41.7451269427,"LOCALITY_NAME":"BLACKWOOD CREEK","LONGITUDE":146.9066855452,"POSTCODE":7301,"STATE_CODE":"TAS"},{"LATITUDE":-41.9957440664,"LOCALITY_NAME":"FLINTSTONE","LONGITUDE":146.8576068796,"POSTCODE":7030,"STATE_CODE":"TAS"},{"LATITUDE":-42.8869510427,"LOCALITY_NAME":"CONNELLYS MARSH","LONGITUDE":147.7232241601,"POSTCODE":7173,"STATE_CODE":"TAS"},{"LATITUDE":-39.6568695614,"LOCALITY_NAME":"EGG LAGOON","LONGITUDE":143.9923936257,"POSTCODE":7256,"STATE_CODE":"TAS"},{"LATITUDE":-41.4342607398,"LOCALITY_NAME":"PARADISE","LONGITUDE":146.3237939277,"POSTCODE":7306,"STATE_CODE":"TAS"},{"LATITUDE":-42.7842980482,"LOCALITY_NAME":"GRASSTREE HILL","LONGITUDE":147.3664115976,"POSTCODE":7017,"STATE_CODE":"TAS"},{"LATITUDE":-42.7255448294,"LOCALITY_NAME":"TYENNA","LONGITUDE":146.673963351,"POSTCODE":7140,"STATE_CODE":"TAS"},{"LATITUDE":-40.8321679052,"LOCALITY_NAME":"WILTSHIRE","LONGITUDE":145.2767574636,"POSTCODE":7321,"STATE_CODE":"TAS"},{"LATITUDE":-41.6022540968,"LOCALITY_NAME":"MANGANA","LONGITUDE":147.8846685081,"POSTCODE":7214,"STATE_CODE":"TAS"},{"LATITUDE":-42.7526840584,"LOCALITY_NAME":"PLENTY","LONGITUDE":146.9799681341,"POSTCODE":7140,"STATE_CODE":"TAS"},{"LATITUDE":-41.0606663063,"LOCALITY_NAME":"EAST CAM","LONGITUDE":145.858344133,"POSTCODE":7321,"STATE_CODE":"TAS"},{"LATITUDE":-42.801010423,"LOCALITY_NAME":"BREAM CREEK","LONGITUDE":147.8386663993,"POSTCODE":7175,"STATE_CODE":"TAS"},{"LATITUDE":-42.472711867,"LOCALITY_NAME":"WOODSDALE","LONGITUDE":147.5783232735,"POSTCODE":7120,"STATE_CODE":"TAS"},{"LATITUDE":-41.2462399251,"LOCALITY_NAME":"GOULDS COUNTRY","LONGITUDE":148.0577993185,"POSTCODE":7216,"STATE_CODE":"TAS"},{"LATITUDE":-41.4471260725,"LOCALITY_NAME":"MOLTEMA","LONGITUDE":146.5290419052,"POSTCODE":7304,"STATE_CODE":"TAS"},{"LATITUDE":-42.8219766139,"LOCALITY_NAME":"DOWSING POINT","LONGITUDE":147.2960484539,"POSTCODE":7010,"STATE_CODE":"TAS"},{"LATITUDE":-40.1649153011,"LOCALITY_NAME":"RANGA","LONGITUDE":148.1118589084,"POSTCODE":7255,"STATE_CODE":"TAS"},{"LATITUDE":-41.2133483077,"LOCALITY_NAME":"ABBOTSHAM","LONGITUDE":146.1787091428,"POSTCODE":7315,"STATE_CODE":"TAS"},{"LATITUDE":-41.224741245,"LOCALITY_NAME":"OONAH","LONGITUDE":145.6111489467,"POSTCODE":7325,"STATE_CODE":"TAS"},{"LATITUDE":-41.3167652031,"LOCALITY_NAME":"TARGA","LONGITUDE":147.3756184081,"POSTCODE":7259,"STATE_CODE":"TAS"},{"LATITUDE":-42.2274988369,"LOCALITY_NAME":"ROCKY HILLS","LONGITUDE":148.0152012913,"POSTCODE":7190,"STATE_CODE":"TAS"},{"LATITUDE":-41.2105891297,"LOCALITY_NAME":"CUCKOO","LONGITUDE":147.5746785665,"POSTCODE":7260,"STATE_CODE":"TAS"},{"LATITUDE":-39.778428734,"LOCALITY_NAME":"BUNGAREE","LONGITUDE":143.9146852553,"POSTCODE":7256,"STATE_CODE":"TAS"},{"LATITUDE":-43.3168516638,"LOCALITY_NAME":"RAMINEA","LONGITUDE":146.9466275662,"POSTCODE":7109,"STATE_CODE":"TAS"},{"LATITUDE":-39.9016717657,"LOCALITY_NAME":"LEEKA","LONGITUDE":147.8204541504,"POSTCODE":7255,"STATE_CODE":"TAS"},{"LATITUDE":-43.556763423,"LOCALITY_NAME":"RECHERCHE","LONGITUDE":146.8897427618,"POSTCODE":7109,"STATE_CODE":"TAS"},{"LATITUDE":-41.458740855,"LOCALITY_NAME":"BLACKSTONE HEIGHTS","LONGITUDE":147.0797023527,"POSTCODE":7250,"STATE_CODE":"TAS"},{"LATITUDE":-41.3296474353,"LOCALITY_NAME":"ROSEVEARS","LONGITUDE":146.9998313233,"POSTCODE":7277,"STATE_CODE":"TAS"},{"LATITUDE":-41.1583006846,"LOCALITY_NAME":"TAKONE","LONGITUDE":145.6408737692,"POSTCODE":7325,"STATE_CODE":"TAS"},{"LATITUDE":-43.2079929283,"LOCALITY_NAME":"WATERLOO","LONGITUDE":146.971461904,"POSTCODE":7109,"STATE_CODE":"TAS"},{"LATITUDE":-42.7491215569,"LOCALITY_NAME":"HAYES","LONGITUDE":146.9929339277,"POSTCODE":7140,"STATE_CODE":"TAS"},{"LATITUDE":-41.2541487015,"LOCALITY_NAME":"SOUTH SPREYTON","LONGITUDE":146.3491383521,"POSTCODE":7310,"STATE_CODE":"TAS"},{"LATITUDE":-41.5218840952,"LOCALITY_NAME":"EXTON","LONGITUDE":146.7410273424,"POSTCODE":7303,"STATE_CODE":"TAS"},{"LATITUDE":-42.4223825314,"LOCALITY_NAME":"WHITEFOORD","LONGITUDE":147.5264279946,"POSTCODE":7120,"STATE_CODE":"TAS"},{"LATITUDE":-42.4453864667,"LOCALITY_NAME":"TIBERIAS","LONGITUDE":147.3676216033,"POSTCODE":7120,"STATE_CODE":"TAS"},{"LATITUDE":-41.3329157708,"LOCALITY_NAME":"NOOK","LONGITUDE":146.3326805602,"POSTCODE":7306,"STATE_CODE":"TAS"},{"LATITUDE":-40.7547692864,"LOCALITY_NAME":"WOOLNORTH","LONGITUDE":144.7773107446,"POSTCODE":7330,"STATE_CODE":"TAS"},{"LATITUDE":-41.6782263061,"LOCALITY_NAME":"LIFFEY","LONGITUDE":146.8477521721,"POSTCODE":7301,"STATE_CODE":"TAS"},{"LATITUDE":-42.9924608704,"LOCALITY_NAME":"HUNTINGFIELD","LONGITUDE":147.2892684583,"POSTCODE":7055,"STATE_CODE":"TAS"},{"LATITUDE":-41.2599118674,"LOCALITY_NAME":"KINDRED","LONGITUDE":146.2202000761,"POSTCODE":7310,"STATE_CODE":"TAS"},{"LATITUDE":-41.042495083,"LOCALITY_NAME":"CALDER","LONGITUDE":145.639243993,"POSTCODE":7325,"STATE_CODE":"TAS"},{"LATITUDE":-43.0752144651,"LOCALITY_NAME":"DENNES POINT","LONGITUDE":147.3463962692,"POSTCODE":7150,"STATE_CODE":"TAS"},{"LATITUDE":-40.932575291,"LOCALITY_NAME":"MARRAWAH","LONGITUDE":144.6837763339,"POSTCODE":7330,"STATE_CODE":"TAS"},{"LATITUDE":-41.41468161,"LOCALITY_NAME":"SOUTH NIETTA","LONGITUDE":146.0708379336,"POSTCODE":7315,"STATE_CODE":"TAS"},{"LATITUDE":-41.4702861528,"LOCALITY_NAME":"GOWRIE PARK","LONGITUDE":146.2215488962,"POSTCODE":7306,"STATE_CODE":"TAS"},{"LATITUDE":-43.2889188702,"LOCALITY_NAME":"SIMPSONS BAY","LONGITUDE":147.3009802556,"POSTCODE":7150,"STATE_CODE":"TAS"},{"LATITUDE":-41.3778850835,"LOCALITY_NAME":"NUNAMARA","LONGITUDE":147.3154242303,"POSTCODE":7259,"STATE_CODE":"TAS"},{"LATITUDE":-41.1127198583,"LOCALITY_NAME":"JETSONVILLE","LONGITUDE":147.4673275581,"POSTCODE":7260,"STATE_CODE":"TAS"},{"LATITUDE":-41.1616965705,"LOCALITY_NAME":"RETREAT","LONGITUDE":147.170691,"POSTCODE":7254,"STATE_CODE":"TAS"},{"LATITUDE":-41.1707379164,"LOCALITY_NAME":"BAKERS BEACH","LONGITUDE":146.6019913237,"POSTCODE":7307,"STATE_CODE":"TAS"},{"LATITUDE":-43.1895147226,"LOCALITY_NAME":"CAIRNS BAY","LONGITUDE":146.9591612704,"POSTCODE":7116,"STATE_CODE":"TAS"},{"LATITUDE":-43.1372884833,"LOCALITY_NAME":"GLAZIERS BAY","LONGITUDE":147.0165594394,"POSTCODE":7109,"STATE_CODE":"TAS"},{"LATITUDE":-41.1983794208,"LOCALITY_NAME":"WELDBOROUGH","LONGITUDE":147.9109184394,"POSTCODE":7264,"STATE_CODE":"TAS"},{"LATITUDE":-41.7633232208,"LOCALITY_NAME":"EPPING FOREST","LONGITUDE":147.3346232048,"POSTCODE":7211,"STATE_CODE":"TAS"},{"LATITUDE":-41.1655729759,"LOCALITY_NAME":"NATONE","LONGITUDE":145.9257357505,"POSTCODE":7321,"STATE_CODE":"TAS"},{"LATITUDE":-41.3764402181,"LOCALITY_NAME":"SUNNYSIDE","LONGITUDE":146.4477467302,"POSTCODE":7305,"STATE_CODE":"TAS"},{"LATITUDE":-41.4799586014,"LOCALITY_NAME":"REEDY MARSH","LONGITUDE":146.6923343624,"POSTCODE":7304,"STATE_CODE":"TAS"},{"LATITUDE":-41.2149625568,"LOCALITY_NAME":"BANGOR","LONGITUDE":147.1504692783,"POSTCODE":7267,"STATE_CODE":"TAS"},{"LATITUDE":-42.6676971567,"LOCALITY_NAME":"RHEBAN","LONGITUDE":147.9240341917,"POSTCODE":7190,"STATE_CODE":"TAS"},{"LATITUDE":-41.1371016402,"LOCALITY_NAME":"PIPERS RIVER","LONGITUDE":147.0832663924,"POSTCODE":7252,"STATE_CODE":"TAS"},{"LATITUDE":-41.119877827,"LOCALITY_NAME":"BADGER HEAD","LONGITUDE":146.7117773116,"POSTCODE":7270,"STATE_CODE":"TAS"},{"LATITUDE":-42.6060081789,"LOCALITY_NAME":"BUCKLAND","LONGITUDE":147.713297564,"POSTCODE":7190,"STATE_CODE":"TAS"},{"LATITUDE":-41.1298900643,"LOCALITY_NAME":"MOORINA","LONGITUDE":147.8707091871,"POSTCODE":7264,"STATE_CODE":"TAS"},{"LATITUDE":-41.4562727154,"LOCALITY_NAME":"BURNS CREEK","LONGITUDE":147.4807805846,"POSTCODE":7212,"STATE_CODE":"TAS"},{"LATITUDE":-41.1709712667,"LOCALITY_NAME":"NABOWLA","LONGITUDE":147.3640186402,"POSTCODE":7260,"STATE_CODE":"TAS"},{"LATITUDE":-39.9728374976,"LOCALITY_NAME":"MEMANA","LONGITUDE":148.0717456457,"POSTCODE":7255,"STATE_CODE":"TAS"},{"LATITUDE":-41.795803063,"LOCALITY_NAME":"POATINA","LONGITUDE":146.9608210789,"POSTCODE":7302,"STATE_CODE":"TAS"},{"LATITUDE":-41.1296897011,"LOCALITY_NAME":"BELL BAY","LONGITUDE":146.8640748406,"POSTCODE":7253,"STATE_CODE":"TAS"},{"LATITUDE":-41.9293549907,"LOCALITY_NAME":"TRIAL HARBOUR","LONGITUDE":145.1756304,"POSTCODE":7469,"STATE_CODE":"TAS"},{"LATITUDE":-42.367444703,"LOCALITY_NAME":"STRICKLAND","LONGITUDE":146.6633534315,"POSTCODE":7140,"STATE_CODE":"TAS"},{"LATITUDE":-41.2465622629,"LOCALITY_NAME":"RINGAROOMA","LONGITUDE":147.7385787014,"POSTCODE":7263,"STATE_CODE":"TAS"},{"LATITUDE":-41.2813844357,"LOCALITY_NAME":"HOLWELL","LONGITUDE":146.780785377,"POSTCODE":7275,"STATE_CODE":"TAS"},{"LATITUDE":-42.073393613,"LOCALITY_NAME":"GORMANSTON","LONGITUDE":145.598722728,"POSTCODE":7466,"STATE_CODE":"TAS"},{"LATITUDE":-41.0417957403,"LOCALITY_NAME":"ANSONS BAY","LONGITUDE":148.2626823099,"POSTCODE":7264,"STATE_CODE":"TAS"},{"LATITUDE":-41.0958662908,"LOCALITY_NAME":"HERRICK","LONGITUDE":147.8816656859,"POSTCODE":7264,"STATE_CODE":"TAS"},{"LATITUDE":-42.3261379146,"LOCALITY_NAME":"PONTYPOOL","LONGITUDE":147.96139507,"POSTCODE":7190,"STATE_CODE":"TAS"},{"LATITUDE":-41.556953776,"LOCALITY_NAME":"CHUDLEIGH","LONGITUDE":146.4807038891,"POSTCODE":7304,"STATE_CODE":"TAS"},{"LATITUDE":-41.6160435525,"LOCALITY_NAME":"TOIBERRY","LONGITUDE":147.0330680725,"POSTCODE":7301,"STATE_CODE":"TAS"},{"LATITUDE":-42.3237783904,"LOCALITY_NAME":"OSTERLEY","LONGITUDE":146.7478270996,"POSTCODE":7140,"STATE_CODE":"TAS"},{"LATITUDE":-42.1577520317,"LOCALITY_NAME":"INTERLAKEN","LONGITUDE":147.1515196045,"POSTCODE":7030,"STATE_CODE":"TAS"},{"LATITUDE":-42.002558521,"LOCALITY_NAME":"LITTLE PINE LAGOON","LONGITUDE":146.6108721162,"POSTCODE":7140,"STATE_CODE":"TAS"},{"LATITUDE":-41.81701738,"LOCALITY_NAME":"DOUGLAS RIVER","LONGITUDE":148.2593908869,"POSTCODE":7215,"STATE_CODE":"TAS"},{"LATITUDE":-41.3663863095,"LOCALITY_NAME":"MERSEYLEA","LONGITUDE":146.474181013,"POSTCODE":7305,"STATE_CODE":"TAS"},{"LATITUDE":-41.2372519439,"LOCALITY_NAME":"HARFORD","LONGITUDE":146.5689741105,"POSTCODE":7307,"STATE_CODE":"TAS"},{"LATITUDE":-41.0794065969,"LOCALITY_NAME":"PIPERS BROOK","LONGITUDE":147.1908283273,"POSTCODE":7254,"STATE_CODE":"TAS"},{"LATITUDE":-41.5215207381,"LOCALITY_NAME":"BREADALBANE","LONGITUDE":147.183873663,"POSTCODE":7258,"STATE_CODE":"TAS"},{"LATITUDE":-41.0176031651,"LOCALITY_NAME":"LAPOINYA","LONGITUDE":145.5739777021,"POSTCODE":7325,"STATE_CODE":"TAS"},{"LATITUDE":-41.0835629804,"LOCALITY_NAME":"PREOLENNA","LONGITUDE":145.5684596677,"POSTCODE":7325,"STATE_CODE":"TAS"},{"LATITUDE":-41.22823655,"LOCALITY_NAME":"TEMMA","LONGITUDE":144.6936328539,"POSTCODE":7330,"STATE_CODE":"TAS"},{"LATITUDE":-42.7622254222,"LOCALITY_NAME":"WATTLE HILL","LONGITUDE":147.6570257103,"POSTCODE":7172,"STATE_CODE":"TAS"},{"LATITUDE":-39.7055246258,"LOCALITY_NAME":"YAMBACOONA","LONGITUDE":143.9415785658,"POSTCODE":7256,"STATE_CODE":"TAS"},{"LATITUDE":-40.222540654,"LOCALITY_NAME":"LOCCOTA","LONGITUDE":148.052739902,"POSTCODE":7255,"STATE_CODE":"TAS"},{"LATITUDE":-41.5532081835,"LOCALITY_NAME":"LIENA","LONGITUDE":146.2267106039,"POSTCODE":7304,"STATE_CODE":"TAS"},{"LATITUDE":-42.658248877,"LOCALITY_NAME":"MEADOWBANK","LONGITUDE":146.848286869,"POSTCODE":7140,"STATE_CODE":"TAS"},{"LATITUDE":-41.3381953334,"LOCALITY_NAME":"TAYENE","LONGITUDE":147.4546299407,"POSTCODE":7259,"STATE_CODE":"TAS"},{"LATITUDE":-42.4774087431,"LOCALITY_NAME":"RHYNDASTON","LONGITUDE":147.3850212137,"POSTCODE":7120,"STATE_CODE":"TAS"},{"LATITUDE":-42.4032324626,"LOCALITY_NAME":"APSLEY","LONGITUDE":147.1510270232,"POSTCODE":7030,"STATE_CODE":"TAS"},{"LATITUDE":-40.9389015708,"LOCALITY_NAME":"TOGARI","LONGITUDE":144.8881531821,"POSTCODE":7330,"STATE_CODE":"TAS"},{"LATITUDE":-40.8126448962,"LOCALITY_NAME":"SCOPUS","LONGITUDE":145.0289431717,"POSTCODE":7330,"STATE_CODE":"TAS"},{"LATITUDE":-41.482021914,"LOCALITY_NAME":"QUAMBY BEND","LONGITUDE":146.866906254,"POSTCODE":7292,"STATE_CODE":"TAS"},{"LATITUDE":-40.0467666192,"LOCALITY_NAME":"BLUE ROCKS","LONGITUDE":147.9463131879,"POSTCODE":7255,"STATE_CODE":"TAS"},{"LATITUDE":-41.8086201553,"LOCALITY_NAME":"CONARA","LONGITUDE":147.458726141,"POSTCODE":7211,"STATE_CODE":"TAS"},{"LATITUDE":-42.0364366586,"LOCALITY_NAME":"WILBURVILLE","LONGITUDE":146.8989931103,"POSTCODE":7030,"STATE_CODE":"TAS"},{"LATITUDE":-41.393359584,"LOCALITY_NAME":"STOODLEY","LONGITUDE":146.4141517916,"POSTCODE":7306,"STATE_CODE":"TAS"},{"LATITUDE":-41.1482734664,"LOCALITY_NAME":"WEST PINE","LONGITUDE":145.9990768903,"POSTCODE":7316,"STATE_CODE":"TAS"},{"LATITUDE":-41.3187642318,"LOCALITY_NAME":"LOWER WILMOT","LONGITUDE":146.2090438489,"POSTCODE":7310,"STATE_CODE":"TAS"},{"LATITUDE":-42.4607200182,"LOCALITY_NAME":"MELTON MOWBRAY","LONGITUDE":147.1864169913,"POSTCODE":7030,"STATE_CODE":"TAS"},{"LATITUDE":-40.0963258236,"LOCALITY_NAME":"LACKRANA","LONGITUDE":148.1770274233,"POSTCODE":7255,"STATE_CODE":"TAS"},{"LATITUDE":-41.4598157467,"LOCALITY_NAME":"UPPER BLESSINGTON","LONGITUDE":147.5745115176,"POSTCODE":7212,"STATE_CODE":"TAS"},{"LATITUDE":-41.7822099704,"LOCALITY_NAME":"BREONA","LONGITUDE":146.7070839033,"POSTCODE":7304,"STATE_CODE":"TAS"},{"LATITUDE":-41.9636528534,"LOCALITY_NAME":"TODS CORNER","LONGITUDE":146.7967130771,"POSTCODE":7030,"STATE_CODE":"TAS"},{"LATITUDE":-41.899580268,"LOCALITY_NAME":"LIAWENEE","LONGITUDE":146.665453194,"POSTCODE":7030,"STATE_CODE":"TAS"},{"LATITUDE":-43.0943229683,"LOCALITY_NAME":"KILLORA","LONGITUDE":147.3233828142,"POSTCODE":7150,"STATE_CODE":"TAS"},{"LATITUDE":-43.1215567116,"LOCALITY_NAME":"BARNES BAY","LONGITUDE":147.3620547592,"POSTCODE":7150,"STATE_CODE":"TAS"},{"LATITUDE":-41.1887722328,"LOCALITY_NAME":"WEST SCOTTSDALE","LONGITUDE":147.4501191188,"POSTCODE":7260,"STATE_CODE":"TAS"},{"LATITUDE":-40.8631122013,"LOCALITY_NAME":"BROADMEADOWS","LONGITUDE":145.0864525957,"POSTCODE":7330,"STATE_CODE":"TAS"},{"LATITUDE":-41.2170297892,"LOCALITY_NAME":"FORTHSIDE","LONGITUDE":146.2757837244,"POSTCODE":7310,"STATE_CODE":"TAS"},{"LATITUDE":-40.776750858,"LOCALITY_NAME":"CAPE PORTLAND","LONGITUDE":148.018338758,"POSTCODE":7264,"STATE_CODE":"TAS"},{"LATITUDE":-41.1668472827,"LOCALITY_NAME":"LILLICO","LONGITUDE":146.290977524,"POSTCODE":7310,"STATE_CODE":"TAS"},{"LATITUDE":-41.01266694,"LOCALITY_NAME":"SOUTH MOUNT CAMERON","LONGITUDE":147.96268623,"POSTCODE":7264,"STATE_CODE":"TAS"},{"LATITUDE":-41.84386874,"LOCALITY_NAME":"CENTRAL PLATEAU","LONGITUDE":146.57482443,"POSTCODE":7304,"STATE_CODE":"TAS"},{"LATITUDE":-41.5605408418,"LOCALITY_NAME":"CORNWALL","LONGITUDE":148.1448263778,"POSTCODE":7215,"STATE_CODE":"TAS"},{"LATITUDE":-41.4641742289,"LOCALITY_NAME":"WEETAH","LONGITUDE":146.6417566157,"POSTCODE":7304,"STATE_CODE":"TAS"},{"LATITUDE":-42.32933905,"LOCALITY_NAME":"LOWER MARSHES","LONGITUDE":147.1973030493,"POSTCODE":7030,"STATE_CODE":"TAS"},{"LATITUDE":-41.2507104653,"LOCALITY_NAME":"SOUTH SPRINGFIELD","LONGITUDE":147.5050437063,"POSTCODE":7260,"STATE_CODE":"TAS"},{"LATITUDE":-39.8203300775,"LOCALITY_NAME":"SEA ELEPHANT","LONGITUDE":144.0396194275,"POSTCODE":7256,"STATE_CODE":"TAS"},{"LATITUDE":-40.88974184,"LOCALITY_NAME":"MOUNT WILLIAM","LONGITUDE":148.20360916,"POSTCODE":7264,"STATE_CODE":"TAS"},{"LATITUDE":-40.7804821387,"LOCALITY_NAME":"MONTAGU","LONGITUDE":144.9578374536,"POSTCODE":7330,"STATE_CODE":"TAS"},{"LATITUDE":-41.3340931533,"LOCALITY_NAME":"UPPER CASTRA","LONGITUDE":146.1309402987,"POSTCODE":7315,"STATE_CODE":"TAS"},{"LATITUDE":-40.966980595,"LOCALITY_NAME":"EDITH CREEK","LONGITUDE":145.0893757083,"POSTCODE":7330,"STATE_CODE":"TAS"},{"LATITUDE":-41.4666523569,"LOCALITY_NAME":"WEEGENA","LONGITUDE":146.477636456,"POSTCODE":7304,"STATE_CODE":"TAS"},{"LATITUDE":-41.683612304,"LOCALITY_NAME":"POWRANNA","LONGITUDE":147.2643963733,"POSTCODE":7300,"STATE_CODE":"TAS"},{"LATITUDE":-39.7513814637,"LOCALITY_NAME":"REEKARA","LONGITUDE":143.9716429795,"POSTCODE":7256,"STATE_CODE":"TAS"},{"LATITUDE":-41.28686432,"LOCALITY_NAME":"ALBERTON","LONGITUDE":147.7862438688,"POSTCODE":7263,"STATE_CODE":"TAS"},{"LATITUDE":-42.0281918028,"LOCALITY_NAME":"MORASS BAY","LONGITUDE":146.9321198685,"POSTCODE":7030,"STATE_CODE":"TAS"},{"LATITUDE":-42.0777138633,"LOCALITY_NAME":"STEPPES","LONGITUDE":146.8572557917,"POSTCODE":7030,"STATE_CODE":"TAS"},{"LATITUDE":-42.7666551607,"LOCALITY_NAME":"STRATHGORDON","LONGITUDE":146.0461567179,"POSTCODE":7139,"STATE_CODE":"TAS"},{"LATITUDE":-41.6519705837,"LOCALITY_NAME":"CHAIN OF LAGOONS","LONGITUDE":148.2940452867,"POSTCODE":7215,"STATE_CODE":"TAS"},{"LATITUDE":-42.10669408,"LOCALITY_NAME":"LAKE ST CLAIR","LONGITUDE":146.20630363,"POSTCODE":7140,"STATE_CODE":"TAS"},{"LATITUDE":-43.1513344281,"LOCALITY_NAME":"LOWER WATTLE GROVE","LONGITUDE":147.0095940319,"POSTCODE":7109,"STATE_CODE":"TAS"},{"LATITUDE":-39.9337365999,"LOCALITY_NAME":"PEGARAH","LONGITUDE":144.0381799276,"POSTCODE":7256,"STATE_CODE":"TAS"},{"LATITUDE":-42.3323238463,"LOCALITY_NAME":"ANDOVER","LONGITUDE":147.49611356,"POSTCODE":7120,"STATE_CODE":"TAS"},{"LATITUDE":-41.5835956362,"LOCALITY_NAME":"DAIRY PLAINS","LONGITUDE":146.5225915286,"POSTCODE":7304,"STATE_CODE":"TAS"},{"LATITUDE":-41.1743920071,"LOCALITY_NAME":"CAMENA","LONGITUDE":145.9622473447,"POSTCODE":7316,"STATE_CODE":"TAS"},{"LATITUDE":-42.1825219358,"LOCALITY_NAME":"WOODBURY","LONGITUDE":147.4214450426,"POSTCODE":7120,"STATE_CODE":"TAS"},{"LATITUDE":-39.9316044,"LOCALITY_NAME":"LUGHRATA","LONGITUDE":147.91326863,"POSTCODE":7255,"STATE_CODE":"TAS"},{"LATITUDE":-40.3715439496,"LOCALITY_NAME":"CAPE BARREN ISLAND","LONGITUDE":148.0434012552,"POSTCODE":7257,"STATE_CODE":"TAS"},{"LATITUDE":-41.032512075,"LOCALITY_NAME":"BANCA","LONGITUDE":147.788375895,"POSTCODE":7265,"STATE_CODE":"TAS"},{"LATITUDE":-41.4324587131,"LOCALITY_NAME":"ERRIBA","LONGITUDE":146.1266418995,"POSTCODE":7310,"STATE_CODE":"TAS"},{"LATITUDE":-41.310973972,"LOCALITY_NAME":"TRENAH","LONGITUDE":147.67911517,"POSTCODE":7263,"STATE_CODE":"TAS"},{"LATITUDE":-41.2643559389,"LOCALITY_NAME":"ROBIGANA","LONGITUDE":146.9505740261,"POSTCODE":7275,"STATE_CODE":"TAS"},{"LATITUDE":-42.4322522552,"LOCALITY_NAME":"BADEN","LONGITUDE":147.4699290703,"POSTCODE":7120,"STATE_CODE":"TAS"},{"LATITUDE":-41.2823703358,"LOCALITY_NAME":"TALAWA","LONGITUDE":147.7115742052,"POSTCODE":7263,"STATE_CODE":"TAS"},{"LATITUDE":-42.2650150138,"LOCALITY_NAME":"YORK PLAINS","LONGITUDE":147.5010709511,"POSTCODE":7120,"STATE_CODE":"TAS"},{"LATITUDE":-39.617188182,"LOCALITY_NAME":"WICKHAM","LONGITUDE":143.972928576,"POSTCODE":7256,"STATE_CODE":"TAS"},{"LATITUDE":-42.2876108091,"LOCALITY_NAME":"PAWTELLA","LONGITUDE":147.4996872083,"POSTCODE":7120,"STATE_CODE":"TAS"},{"LATITUDE":-40.8573565043,"LOCALITY_NAME":"RUSHY LAGOON","LONGITUDE":148.0143657643,"POSTCODE":7264,"STATE_CODE":"TAS"},{"LATITUDE":-42.1308916131,"LOCALITY_NAME":"DERWENT BRIDGE","LONGITUDE":146.2365068823,"POSTCODE":7140,"STATE_CODE":"TAS"},{"LATITUDE":-41.8001996327,"LOCALITY_NAME":"CLEVELAND","LONGITUDE":147.3950959981,"POSTCODE":7211,"STATE_CODE":"TAS"},{"LATITUDE":-41.5845017394,"LOCALITY_NAME":"OAKS","LONGITUDE":146.972301135,"POSTCODE":7303,"STATE_CODE":"TAS"},{"LATITUDE":-42.711776223,"LOCALITY_NAME":"BUSHY PARK","LONGITUDE":146.8945854112,"POSTCODE":7140,"STATE_CODE":"TAS"},{"LATITUDE":-42.8693223116,"LOCALITY_NAME":"QUEENS DOMAIN","LONGITUDE":147.3323395555,"POSTCODE":7000,"STATE_CODE":"TAS"},{"LATITUDE":-41.5009786747,"LOCALITY_NAME":"MOINA","LONGITUDE":146.0761205944,"POSTCODE":7310,"STATE_CODE":"TAS"},{"LATITUDE":-41.8736070401,"LOCALITY_NAME":"CRAMPS BAY","LONGITUDE":146.8234924174,"POSTCODE":7030,"STATE_CODE":"TAS"},{"LATITUDE":-41.7916244283,"LOCALITY_NAME":"DOCTORS POINT","LONGITUDE":146.690359611,"POSTCODE":7304,"STATE_CODE":"TAS"},{"LATITUDE":-41.1075834,"LOCALITY_NAME":"WARRENTINNA","LONGITUDE":147.7408205433,"POSTCODE":7261,"STATE_CODE":"TAS"},{"LATITUDE":-42.16925532,"LOCALITY_NAME":"WADDAMANA","LONGITUDE":146.7621811262,"POSTCODE":7030,"STATE_CODE":"TAS"},{"LATITUDE":-42.7871399745,"LOCALITY_NAME":"MALBINA","LONGITUDE":147.1178114721,"POSTCODE":7140,"STATE_CODE":"TAS"},{"LATITUDE":-41.4047495474,"LOCALITY_NAME":"LOONGANA","LONGITUDE":145.9473519463,"POSTCODE":7315,"STATE_CODE":"TAS"},{"LATITUDE":-41.5502902794,"LOCALITY_NAME":"NEEDLES","LONGITUDE":146.5488167194,"POSTCODE":7304,"STATE_CODE":"TAS"},{"LATITUDE":-41.636736522,"LOCALITY_NAME":"WESTERN CREEK","LONGITUDE":146.4998672827,"POSTCODE":7304,"STATE_CODE":"TAS"},{"LATITUDE":-42.2581749225,"LOCALITY_NAME":"HERMITAGE","LONGITUDE":146.8560299225,"POSTCODE":7030,"STATE_CODE":"TAS"},{"LATITUDE":-42.6433318566,"LOCALITY_NAME":"RUNNYMEDE","LONGITUDE":147.5586734814,"POSTCODE":7190,"STATE_CODE":"TAS"},{"LATITUDE":-40.9168489333,"LOCALITY_NAME":"BOOBYALLA","LONGITUDE":147.8697897467,"POSTCODE":7264,"STATE_CODE":"TAS"},{"LATITUDE":-41.1824278006,"LOCALITY_NAME":"GOLCONDA","LONGITUDE":147.2989215731,"POSTCODE":7254,"STATE_CODE":"TAS"},{"LATITUDE":-41.2952125342,"LOCALITY_NAME":"CASTRA","LONGITUDE":146.1163925181,"POSTCODE":7315,"STATE_CODE":"TAS"},{"LATITUDE":-42.3015467924,"LOCALITY_NAME":"LEMONT","LONGITUDE":147.6210038232,"POSTCODE":7120,"STATE_CODE":"TAS"},{"LATITUDE":-43.147187455,"LOCALITY_NAME":"HIGHCROFT","LONGITUDE":147.7686961964,"POSTCODE":7183,"STATE_CODE":"TAS"},{"LATITUDE":-41.2602132019,"LOCALITY_NAME":"HAMPSHIRE","LONGITUDE":145.781178845,"POSTCODE":7321,"STATE_CODE":"TAS"},{"LATITUDE":-40.8484623403,"LOCALITY_NAME":"MELLA","LONGITUDE":145.0575552416,"POSTCODE":7330,"STATE_CODE":"TAS"},{"LATITUDE":-42.4072389155,"LOCALITY_NAME":"STONEHENGE","LONGITUDE":147.623536912,"POSTCODE":7120,"STATE_CODE":"TAS"},{"LATITUDE":-41.8221266967,"LOCALITY_NAME":"ROYAL GEORGE","LONGITUDE":147.9079570898,"POSTCODE":7213,"STATE_CODE":"TAS"},{"LATITUDE":-41.3501769384,"LOCALITY_NAME":"SOUTH PRESTON","LONGITUDE":146.0444196111,"POSTCODE":7315,"STATE_CODE":"TAS"},{"LATITUDE":-41.1296388118,"LOCALITY_NAME":"TELITA","LONGITUDE":147.7665071441,"POSTCODE":7264,"STATE_CODE":"TAS"},{"LATITUDE":-41.4370007322,"LOCALITY_NAME":"UPPER ESK","LONGITUDE":147.7335907374,"POSTCODE":7214,"STATE_CODE":"TAS"},{"LATITUDE":-41.5900165567,"LOCALITY_NAME":"CRADLE MOUNTAIN","LONGITUDE":145.9343873872,"POSTCODE":7306,"STATE_CODE":"TAS"},{"LATITUDE":-42.7931853283,"LOCALITY_NAME":"MOOGARA","LONGITUDE":146.9212047067,"POSTCODE":7140,"STATE_CODE":"TAS"},{"LATITUDE":-40.0531808078,"LOCALITY_NAME":"PEARSHAPE","LONGITUDE":143.9069595344,"POSTCODE":7256,"STATE_CODE":"TAS"},{"LATITUDE":-41.088734122,"LOCALITY_NAME":"FORESTER","LONGITUDE":147.674414238,"POSTCODE":7260,"STATE_CODE":"TAS"},{"LATITUDE":-41.14915339,"LOCALITY_NAME":"KAMONA","LONGITUDE":147.6616798983,"POSTCODE":7260,"STATE_CODE":"TAS"},{"LATITUDE":-41.4261406986,"LOCALITY_NAME":"PROMISED LAND","LONGITUDE":146.2089105629,"POSTCODE":7306,"STATE_CODE":"TAS"},{"LATITUDE":-42.21534766,"LOCALITY_NAME":"ANTILL PONDS","LONGITUDE":147.4095029014,"POSTCODE":7120,"STATE_CODE":"TAS"},{"LATITUDE":-41.3058183396,"LOCALITY_NAME":"LOYETEA","LONGITUDE":145.9416624571,"POSTCODE":7316,"STATE_CODE":"TAS"},{"LATITUDE":-41.4535047857,"LOCALITY_NAME":"STAVERTON","LONGITUDE":146.187173088,"POSTCODE":7306,"STATE_CODE":"TAS"},{"LATITUDE":-41.4888323466,"LOCALITY_NAME":"WESTWOOD","LONGITUDE":146.9848930911,"POSTCODE":7292,"STATE_CODE":"TAS"},{"LATITUDE":-42.4072944963,"LOCALITY_NAME":"STONOR","LONGITUDE":147.3940988783,"POSTCODE":7119,"STATE_CODE":"TAS"},{"LATITUDE":-39.84419903,"LOCALITY_NAME":"WINGAROO","LONGITUDE":148.01617576,"POSTCODE":7255,"STATE_CODE":"TAS"},{"LATITUDE":-41.5678933054,"LOCALITY_NAME":"MAYBERRY","LONGITUDE":146.2982225369,"POSTCODE":7304,"STATE_CODE":"TAS"},{"LATITUDE":-41.4746460886,"LOCALITY_NAME":"CETHANA","LONGITUDE":146.1736464729,"POSTCODE":7306,"STATE_CODE":"TAS"},{"LATITUDE":-41.5943443257,"LOCALITY_NAME":"CLUAN","LONGITUDE":146.8458416881,"POSTCODE":7303,"STATE_CODE":"TAS"},{"LATITUDE":-41.1021233031,"LOCALITY_NAME":"PRESERVATION BAY","LONGITUDE":146.0464294671,"POSTCODE":7316,"STATE_CODE":"TAS"},{"LATITUDE":-41.17190406,"LOCALITY_NAME":"WEST TAKONE","LONGITUDE":145.5588379622,"POSTCODE":7325,"STATE_CODE":"TAS"},{"LATITUDE":-40.9939017215,"LOCALITY_NAME":"NABAGEENA","LONGITUDE":145.1243321952,"POSTCODE":7330,"STATE_CODE":"TAS"},{"LATITUDE":-41.4504344683,"LOCALITY_NAME":"UPPER SCAMANDER","LONGITUDE":148.1987958349,"POSTCODE":7215,"STATE_CODE":"TAS"},{"LATITUDE":-41.4684821133,"LOCALITY_NAME":"LUINA","LONGITUDE":145.3774561233,"POSTCODE":7321,"STATE_CODE":"TAS"},{"LATITUDE":-41.0345773817,"LOCALITY_NAME":"ROGER RIVER","LONGITUDE":145.0351231598,"POSTCODE":7330,"STATE_CODE":"TAS"},{"LATITUDE":-42.7482165377,"LOCALITY_NAME":"FITZGERALD","LONGITUDE":146.6453879746,"POSTCODE":7140,"STATE_CODE":"TAS"},{"LATITUDE":-41.9881131527,"LOCALITY_NAME":"FRIENDLY BEACHES","LONGITUDE":148.2540193309,"POSTCODE":7215,"STATE_CODE":"TAS"},{"LATITUDE":-43.4420253067,"LOCALITY_NAME":"IDA BAY","LONGITUDE":146.9024535383,"POSTCODE":7109,"STATE_CODE":"TAS"},{"LATITUDE":-42.5744184879,"LOCALITY_NAME":"PELHAM","LONGITUDE":147.0157734054,"POSTCODE":7030,"STATE_CODE":"TAS"},{"LATITUDE":-41.13972178,"LOCALITY_NAME":"NELSON BAY","LONGITUDE":144.6730203084,"POSTCODE":7330,"STATE_CODE":"TAS"},{"LATITUDE":-41.2090687735,"LOCALITY_NAME":"LOWER TURNERS MARSH","LONGITUDE":147.1118017871,"POSTCODE":7267,"STATE_CODE":"TAS"},{"LATITUDE":-43.1820237519,"LOCALITY_NAME":"STORMLEA","LONGITUDE":147.7735903352,"POSTCODE":7184,"STATE_CODE":"TAS"},{"LATITUDE":-40.9390774606,"LOCALITY_NAME":"BRITTONS SWAMP","LONGITUDE":144.964824,"POSTCODE":7330,"STATE_CODE":"TAS"},{"LATITUDE":-40.98207563,"LOCALITY_NAME":"EDDYSTONE","LONGITUDE":148.3212662121,"POSTCODE":7264,"STATE_CODE":"TAS"},{"LATITUDE":-41.0983560589,"LOCALITY_NAME":"MEUNNA","LONGITUDE":145.4899068289,"POSTCODE":7325,"STATE_CODE":"TAS"},{"LATITUDE":-42.2060570025,"LOCALITY_NAME":"TOOMS LAKE","LONGITUDE":147.777074028,"POSTCODE":7209,"STATE_CODE":"TAS"},{"LATITUDE":-42.4712107267,"LOCALITY_NAME":"FLORENTINE","LONGITUDE":146.5147911633,"POSTCODE":7140,"STATE_CODE":"TAS"},{"LATITUDE":-41.60121184,"LOCALITY_NAME":"MERSEY FOREST","LONGITUDE":146.18990079,"POSTCODE":7304,"STATE_CODE":"TAS"},{"LATITUDE":-42.683103261,"LOCALITY_NAME":"KARANJA","LONGITUDE":146.8371641995,"POSTCODE":7140,"STATE_CODE":"TAS"},{"LATITUDE":-42.3409762067,"LOCALITY_NAME":"SWANSTON","LONGITUDE":147.740512055,"POSTCODE":7120,"STATE_CODE":"TAS"},{"LATITUDE":-41.1780779556,"LOCALITY_NAME":"TULENDEENA","LONGITUDE":147.6582671922,"POSTCODE":7260,"STATE_CODE":"TAS"},{"LATITUDE":-42.6819545007,"LOCALITY_NAME":"MOUNT FIELD","LONGITUDE":146.6169005107,"POSTCODE":7140,"STATE_CODE":"TAS"},{"LATITUDE":-42.0720490503,"LOCALITY_NAME":"SHANNON","LONGITUDE":146.7680416255,"POSTCODE":7030,"STATE_CODE":"TAS"},{"LATITUDE":-41.99414237,"LOCALITY_NAME":"MILLERS BLUFF","LONGITUDE":147.05270126,"POSTCODE":7030,"STATE_CODE":"TAS"},{"LATITUDE":-41.9738531882,"LOCALITY_NAME":"APSLAWN","LONGITUDE":148.1539022673,"POSTCODE":7190,"STATE_CODE":"TAS"},{"LATITUDE":-40.1067758033,"LOCALITY_NAME":"SURPRISE BAY","LONGITUDE":143.9205460267,"POSTCODE":7256,"STATE_CODE":"TAS"},{"LATITUDE":-41.166273725,"LOCALITY_NAME":"LONG REACH","LONGITUDE":146.942379505,"POSTCODE":7253,"STATE_CODE":"TAS"},{"LATITUDE":-42.2626158496,"LOCALITY_NAME":"DEE","LONGITUDE":146.5763637696,"POSTCODE":7140,"STATE_CODE":"TAS"},{"LATITUDE":-40.880531974,"LOCALITY_NAME":"DETENTION","LONGITUDE":145.450471148,"POSTCODE":7321,"STATE_CODE":"TAS"},{"LATITUDE":-42.4971657725,"LOCALITY_NAME":"HOLLOW TREE","LONGITUDE":146.9254006695,"POSTCODE":7140,"STATE_CODE":"TAS"},{"LATITUDE":-41.1726935421,"LOCALITY_NAME":"COUTA ROCKS","LONGITUDE":144.6805098664,"POSTCODE":7330,"STATE_CODE":"TAS"},{"LATITUDE":-43.09096931,"LOCALITY_NAME":"FORTESCUE","LONGITUDE":147.89508112,"POSTCODE":7182,"STATE_CODE":"TAS"},{"LATITUDE":-42.8915332275,"LOCALITY_NAME":"WELLINGTON PARK","LONGITUDE":147.245448975,"POSTCODE":7054,"STATE_CODE":"TAS"},{"LATITUDE":-41.5520028,"LOCALITY_NAME":"MIDDLESEX","LONGITUDE":146.03265945,"POSTCODE":7306,"STATE_CODE":"TAS"},{"LATITUDE":-40.8550881025,"LOCALITY_NAME":"PORT LATTA","LONGITUDE":145.3811440725,"POSTCODE":7321,"STATE_CODE":"TAS"},{"LATITUDE":-41.4325948789,"LOCALITY_NAME":"WEST COAST","LONGITUDE":144.8475382156,"POSTCODE":7321,"STATE_CODE":"TAS"},{"LATITUDE":-43.09509681,"LOCALITY_NAME":"SOUTHWEST","LONGITUDE":146.72606561,"POSTCODE":7140,"STATE_CODE":"TAS"},{"LATITUDE":-41.51075058,"LOCALITY_NAME":"BEN LOMOND","LONGITUDE":147.63078792,"POSTCODE":7212,"STATE_CODE":"TAS"},{"LATITUDE":-41.01990687,"LOCALITY_NAME":"STONY HEAD","LONGITUDE":147.02008543,"POSTCODE":7252,"STATE_CODE":"TAS"}]